{"type": "Topology", "objects": {"data": {"geometries": [{"properties": {"adm2_name": "Colombo", "adm2_name1": "\u0d9a\u0ddc\u0dc5\u0db9 \u0daf\u0dd2\u0dc3\u0dca\u0dad\u0dca\u200d\u0dbb\u0dd2\u0d9a\u0dca\u0d9a", "adm2_name2": "\u0b95\u0bca\u0bb4\u0bc1\u0bae\u0bcd\u0baa\u0bc1 \u0bae\u0bbe\u0bb5\u0b9f\u0bcd\u0b9f\u0bae\u0bcd", "adm2_name3": null, "adm2_pcode": "LK11", "adm1_name": "Western", "adm1_name1": "\u0db6\u0dc3\u0dca\u0db1\u0dcf\u0dc4\u0dd2\u0dbb \u0db4\u0dc5\u0dcf\u0dad", "adm1_name2": "\u0bae\u0bc7\u0bb2\u0bcd \u0bae\u0bbe\u0b95\u0bbe\u0ba3\u0bae\u0bcd", "adm1_name3": null, "adm1_pcode": "LK1", "adm0_name": "Sri Lanka", "adm0_name1": "\u0dc1\u0dca\u200d\u0dbb\u0dd3 \u0dbd\u0d82\u0d9a\u0dcf", "adm0_name2": "\u0b87\u0bb2\u0b99\u0bcd\u0b95\u0bc8", "adm0_name3": null, "adm0_pcode": "LK", "valid_on": "2022-08-16", "valid_to": null, "area_sqkm": 688.16591506, "version": "v03", "lang": "en", "lang1": "si", "lang2": "ta", "lang3": null, "center_lat": 6.84823723, "center_lon": 80.02863578}, "type": "Polygon", "arcs": [[-499, -494, -8, -7, 6, -6, 0, -2]], "id": "feature_00"}, {"properties": {"adm2_name": "Gampaha", "adm2_name1": "\u0d9c\u0db8\u0dca\u0db4\u0dc4 \u0daf\u0dd2\u0dc3\u0dca\u0dad\u0dca\u200d\u0dbb\u0dd2\u0d9a\u0dca", "adm2_name2": "\u0b95\u0bae\u0bcd\u0baa\u0bb9\u0bbe \u0bae\u0bbe\u0bb5\u0b9f\u0bcd\u0b9f\u0bae\u0bcd", "adm2_name3": null, "adm2_pcode": "LK12", "adm1_name": "Western", "adm1_name1": "\u0db6\u0dc3\u0dca\u0db1\u0dcf\u0dc4\u0dd2\u0dbb \u0db4\u0dc5\u0dcf\u0dad", "adm1_name2": "\u0bae\u0bc7\u0bb2\u0bcd \u0bae\u0bbe\u0b95\u0bbe\u0ba3\u0bae\u0bcd", "adm1_name3": null, "adm1_pcode": "LK1", "adm0_name": "Sri Lanka", "adm0_name1": "\u0dc1\u0dca\u200d\u0dbb\u0dd3 \u0dbd\u0d82\u0d9a\u0dcf", "adm0_name2": "\u0b87\u0bb2\u0b99\u0bcd\u0b95\u0bc8", "adm0_name3": null, "adm0_pcode": "LK", "valid_on": "2022-08-16", "valid_to": null, "area_sqkm": 1416.40030692, "version": "v03", "lang": "en", "lang1": "si", "lang2": "ta", "lang3": null, "center_lat": 7.11868674, "center_lon": 80.02093188}, "type": "Polygon", "arcs": [[-502, -501, 500, -500, 1, 2, -434, -430], [3]], "id": "feature_01"}, {"properties": {"adm2_name": "Kalutara", "adm2_name1": "\u0d9a\u0db5\u0dad\u0dbb \u0daf\u0dd2\u0dc3\u0dca\u0dad\u0dca\u200d\u0dbb\u0dd2\u0d9a\u0dca\u0d9a", "adm2_name2": "\u0b95\u0bb3\u0bc1\u0ba4\u0bcd\u0ba4\u0bc1\u0bb1\u0bc8 \u0bae\u0bbe\u0bb5\u0b9f\u0bcd\u0b9f\u0bae", "adm2_name3": null, "adm2_pcode": "LK13", "adm1_name": "Western", "adm1_name1": "\u0db6\u0dc3\u0dca\u0db1\u0dcf\u0dc4\u0dd2\u0dbb \u0db4\u0dc5\u0dcf\u0dad", "adm1_name2": "\u0bae\u0bc7\u0bb2\u0bcd \u0bae\u0bbe\u0b95\u0bbe\u0ba3\u0bae\u0bcd", "adm1_name3": null, "adm1_pcode": "LK1", "adm0_name": "Sri Lanka", "adm0_name1": "\u0dc1\u0dca\u200d\u0dbb\u0dd3 \u0dbd\u0d82\u0d9a\u0dcf", "adm0_name2": "\u0b87\u0bb2\u0b99\u0bcd\u0b95\u0bc8", "adm0_name3": null, "adm0_pcode": "LK", "valid_on": "2022-08-16", "valid_to": null, "area_sqkm": 1646.99120094, "version": "v03", "lang": "en", "lang1": "si", "lang2": "ta", "lang3": null, "center_lat": 6.57564893, "center_lon": 80.13452058}, "type": "Polygon", "arcs": [[-493, -492, -491, -20, 4, 5, -7, 6, 7]], "id": "feature_02"}, {"properties": {"adm2_name": "Kandy", "adm2_name1": "\u0db8\u0dc4\u0db1\u0dd4\u0dc0\u0dbb \u0daf\u0dd2\u0dc3\u0dca\u0dad\u0dca\u200d\u0dbb\u0dd2\u0d9a", "adm2_name2": "\u0b95\u0ba3\u0bcd\u0b9f\u0bbf \u0bae\u0bbe\u0bb5\u0b9f\u0bcd\u0b9f\u0bae\u0bcd", "adm2_name3": null, "adm2_pcode": "LK21", "adm1_name": "Central", "adm1_name1": "\u0db8\u0db0\u0dca\u200d\u0dba\u0db8 \u0db4\u0dc5\u0dcf\u0dad", "adm1_name2": "\u0bae\u0ba4\u0bcd\u0ba4\u0bbf\u0baf \u0bae\u0bbe\u0b95\u0bbe\u0ba3\u0bae\u0bcd", "adm1_name3": null, "adm1_pcode": "LK2", "adm0_name": "Sri Lanka", "adm0_name1": "\u0dc1\u0dca\u200d\u0dbb\u0dd3 \u0dbd\u0d82\u0d9a\u0dcf", "adm0_name2": "\u0b87\u0bb2\u0b99\u0bcd\u0b95\u0bc8", "adm0_name3": null, "adm0_pcode": "LK", "valid_on": "2022-08-16", "valid_to": null, "area_sqkm": 1927.6854698, "version": "v03", "lang": "en", "lang1": "si", "lang2": "ta", "lang3": null, "center_lat": 7.21502511, "center_lon": 80.64056262}, "type": "Polygon", "arcs": [[-478, -18, -495, -429, -17, -16, -15]], "id": "feature_03"}, {"properties": {"adm2_name": "Matale", "adm2_name1": "\u0db8\u0dcf\u0dad\u0dbd\u0dda \u0daf\u0dd2\u0dc3\u0dca\u0dad\u0dca\u200d\u0dbb\u0dd2\u0d9a\u0dca", "adm2_name2": "\u0bae\u0bbe\u0ba4\u0bcd\u0ba4\u0bb3\u0bc8 \u0bae\u0bbe\u0bb5\u0b9f\u0bcd\u0b9f\u0bae\u0bcd", "adm2_name3": null, "adm2_pcode": "LK22", "adm1_name": "Central", "adm1_name1": "\u0db8\u0db0\u0dca\u200d\u0dba\u0db8 \u0db4\u0dc5\u0dcf\u0dad", "adm1_name2": "\u0bae\u0ba4\u0bcd\u0ba4\u0bbf\u0baf \u0bae\u0bbe\u0b95\u0bbe\u0ba3\u0bae\u0bcd", "adm1_name3": null, "adm1_pcode": "LK2", "adm0_name": "Sri Lanka", "adm0_name1": "\u0dc1\u0dca\u200d\u0dbb\u0dd3 \u0dbd\u0d82\u0d9a\u0dcf", "adm0_name2": "\u0b87\u0bb2\u0b99\u0bcd\u0b95\u0bc8", "adm0_name3": null, "adm0_pcode": "LK", "valid_on": "2022-08-16", "valid_to": null, "area_sqkm": 2058.74838488, "version": "v03", "lang": "en", "lang1": "si", "lang2": "ta", "lang3": null, "center_lat": 7.69790222, "center_lon": 80.66033493}, "type": "Polygon", "arcs": [[-419, -479, 14, 15, 16, -428, -457, -456, 455, -455, -475]], "id": "feature_04"}, {"properties": {"adm2_name": "Nuwara Eliya", "adm2_name1": "\u0db1\u0dd4\u0dc0\u0dbb\u0d91\u0dc5\u0dd2\u0dba \u0daf\u0dd2\u0dc3\u0dca\u0dad\u0dca\u200d\u0dbb", "adm2_name2": "\u0ba8\u0bc1\u0bb5\u0bb0\u0bc7\u0bb2\u0bbf\u0baf\u0bbe \u0bae\u0bbe\u0bb5\u0b9f\u0bcd\u0b9f\u0bae", "adm2_name3": null, "adm2_pcode": "LK23", "adm1_name": "Central", "adm1_name1": "\u0db8\u0db0\u0dca\u200d\u0dba\u0db8 \u0db4\u0dc5\u0dcf\u0dad", "adm1_name2": "\u0bae\u0ba4\u0bcd\u0ba4\u0bbf\u0baf \u0bae\u0bbe\u0b95\u0bbe\u0ba3\u0bae\u0bcd", "adm1_name3": null, "adm1_pcode": "LK2", "adm0_name": "Sri Lanka", "adm0_name1": "\u0dc1\u0dca\u200d\u0dbb\u0dd3 \u0dbd\u0d82\u0d9a\u0dcf", "adm0_name2": "\u0b87\u0bb2\u0b99\u0bcd\u0b95\u0bc8", "adm0_name3": null, "adm0_pcode": "LK", "valid_on": "2022-08-16", "valid_to": null, "area_sqkm": 1744.81483583, "version": "v03", "lang": "en", "lang1": "si", "lang2": "ta", "lang3": null, "center_lat": 7.01327661, "center_lon": 80.75704144}, "type": "Polygon", "arcs": [[-477, -484, -497, -496, 17]], "id": "feature_05"}, {"properties": {"adm2_name": "Galle", "adm2_name1": "\u0d9c\u0dcf\u0dbd\u0dca\u0dbd \u0daf\u0dd2\u0dc3\u0dca\u0dad\u0dca\u200d\u0dbb\u0dd2\u0d9a\u0dca", "adm2_name2": "\u0b95\u0bbe\u0bb2\u0bbf \u0bae\u0bbe\u0bb5\u0b9f\u0bcd\u0b9f\u0bae\u0bcd", "adm2_name3": null, "adm2_pcode": "LK31", "adm1_name": "Southern", "adm1_name1": "\u0daf\u0d9a\u0dd4\u0dab\u0dd4 \u0db4\u0dc5\u0dcf\u0dad", "adm1_name2": "\u0ba4\u0bc6\u0ba9\u0bcd \u0bae\u0bbe\u0b95\u0bbe\u0ba3\u0bae\u0bcd", "adm1_name3": null, "adm1_pcode": "LK3", "adm0_name": "Sri Lanka", "adm0_name1": "\u0dc1\u0dca\u200d\u0dbb\u0dd3 \u0dbd\u0d82\u0d9a\u0dcf", "adm0_name2": "\u0b87\u0bb2\u0b99\u0bcd\u0b95\u0bc8", "adm0_name3": null, "adm0_pcode": "LK", "valid_on": "2022-08-16", "valid_to": null, "area_sqkm": 1613.4885819, "version": "v03", "lang": "en", "lang1": "si", "lang2": "ta", "lang3": null, "center_lat": 6.20417288, "center_lon": 80.23092237}, "type": "Polygon", "arcs": [[-490, -23, 18, 19]], "id": "feature_06"}, {"properties": {"adm2_name": "Matara", "adm2_name1": "\u0db8\u0dcf\u0dad\u0dbb \u0daf\u0dd2\u0dc3\u0dca\u0dad\u0dca\u200d\u0dbb\u0dd2\u0d9a\u0dca\u0d9a", "adm2_name2": "\u0bae\u0bbe\u0ba4\u0bcd\u0ba4\u0bb1\u0bc8 \u0bae\u0bbe\u0bb5\u0b9f\u0bcd\u0b9f\u0bae\u0bcd", "adm2_name3": null, "adm2_pcode": "LK32", "adm1_name": "Southern", "adm1_name1": "\u0daf\u0d9a\u0dd4\u0dab\u0dd4 \u0db4\u0dc5\u0dcf\u0dad", "adm1_name2": "\u0ba4\u0bc6\u0ba9\u0bcd \u0bae\u0bbe\u0b95\u0bbe\u0ba3\u0bae\u0bcd", "adm1_name3": null, "adm1_pcode": "LK3", "adm0_name": "Sri Lanka", "adm0_name1": "\u0dc1\u0dca\u200d\u0dbb\u0dd3 \u0dbd\u0d82\u0d9a\u0dcf", "adm0_name2": "\u0b87\u0bb2\u0b99\u0bcd\u0b95\u0bc8", "adm0_name3": null, "adm0_pcode": "LK", "valid_on": "2022-08-16", "valid_to": null, "area_sqkm": 1306.37001864, "version": "v03", "lang": "en", "lang1": "si", "lang2": "ta", "lang3": null, "center_lat": 6.1582224, "center_lon": 80.51940682}, "type": "Polygon", "arcs": [[487, -29, -28, -27, 21, 22, -489, -488]], "id": "feature_07"}, {"properties": {"adm2_name": "Hambantota", "adm2_name1": "\u0dc4\u0db8\u0dca\u0db6\u0db1\u0dca\u0dad\u0ddc\u0da7 \u0daf\u0dd2\u0dc3\u0dca\u0dad\u0dca\u200d", "adm2_name2": "\u0b85\u0bae\u0bcd\u0baa\u0bbe\u0ba8\u0bcd\u0ba4\u0bcb\u0b9f\u0bcd\u0b9f\u0bc8 \u0bae\u0bbe\u0bb5", "adm2_name3": null, "adm2_pcode": "LK33", "adm1_name": "Southern", "adm1_name1": "\u0daf\u0d9a\u0dd4\u0dab\u0dd4 \u0db4\u0dc5\u0dcf\u0dad", "adm1_name2": "\u0ba4\u0bc6\u0ba9\u0bcd \u0bae\u0bbe\u0b95\u0bbe\u0ba3\u0bae\u0bcd", "adm1_name3": null, "adm1_pcode": "LK3", "adm0_name": "Sri Lanka", "adm0_name1": "\u0dc1\u0dca\u200d\u0dbb\u0dd3 \u0dbd\u0d82\u0d9a\u0dcf", "adm0_name2": "\u0b87\u0bb2\u0b99\u0bcd\u0b95\u0bc8", "adm0_name3": null, "adm0_pcode": "LK", "valid_on": "2022-08-16", "valid_to": null, "area_sqkm": 2625.06413247, "version": "v03", "lang": "en", "lang1": "si", "lang2": "ta", "lang3": null, "center_lat": 6.27590894, "center_lon": 81.17796149}, "type": "Polygon", "arcs": [[25, 26, 27, 28, -488, -487, -481, -418]], "id": "feature_08"}, {"properties": {"adm2_name": "Jaffna", "adm2_name1": "\u0dba\u0dcf\u0db4\u0db1\u0dba \u0daf\u0dd2\u0dc3\u0dca\u0dad\u0dca\u200d\u0dbb\u0dd2\u0d9a\u0dca", "adm2_name2": "\u0baf\u0bbe\u0bb4\u0bcd\u0baa\u0bcd\u0baa\u0bbe\u0ba3\u0bae\u0bcd \u0bae\u0bbe\u0bb5\u0b9f\u0bcd", "adm2_name3": null, "adm2_pcode": "LK41", "adm1_name": "Northern", "adm1_name1": "\u0d8b\u0dad\u0dd4\u0dbb\u0dd4 \u0db4\u0dc5\u0dcf\u0dad", "adm1_name2": "\u0bb5\u0b9f \u0bae\u0bbe\u0b95\u0bbe\u0ba3\u0bae\u0bcd", "adm1_name3": null, "adm1_pcode": "LK4", "adm0_name": "Sri Lanka", "adm0_name1": "\u0dc1\u0dca\u200d\u0dbb\u0dd3 \u0dbd\u0d82\u0d9a\u0dcf", "adm0_name2": "\u0b87\u0bb2\u0b99\u0bcd\u0b95\u0bc8", "adm0_name3": null, "adm0_pcode": "LK", "valid_on": "2022-08-16", "valid_to": null, "area_sqkm": 1091.23880692, "version": "v03", "lang": "en", "lang1": "si", "lang2": "ta", "lang3": null, "center_lat": 9.64395027, "center_lon": 79.90838019}, "type": "Polygon", "arcs": [[-210, -215, 29, 30]], "id": "feature_09"}, {"properties": {"adm2_name": "Mannar", "adm2_name1": "\u0db8\u0db1\u0dca\u0db1\u0dcf\u0dbb\u0db8 \u0daf\u0dd2\u0dc3\u0dca\u0dad\u0dca\u200d\u0dbb\u0dd2", "adm2_name2": "\u0bae\u0ba9\u0bcd\u0ba9\u0bbe\u0bb0\u0bcd \u0bae\u0bbe\u0bb5\u0b9f\u0bcd\u0b9f\u0bae\u0bcd", "adm2_name3": null, "adm2_pcode": "LK42", "adm1_name": "Northern", "adm1_name1": "\u0d8b\u0dad\u0dd4\u0dbb\u0dd4 \u0db4\u0dc5\u0dcf\u0dad", "adm1_name2": "\u0bb5\u0b9f \u0bae\u0bbe\u0b95\u0bbe\u0ba3\u0bae\u0bcd", "adm1_name3": null, "adm1_pcode": "LK4", "adm0_name": "Sri Lanka", "adm0_name1": "\u0dc1\u0dca\u200d\u0dbb\u0dd3 \u0dbd\u0d82\u0d9a\u0dcf", "adm0_name2": "\u0b87\u0bb2\u0b99\u0bcd\u0b95\u0bc8", "adm0_name3": null, "adm0_pcode": "LK", "valid_on": "2022-08-16", "valid_to": null, "area_sqkm": 2010.82924856, "version": "v03", "lang": "en", "lang1": "si", "lang2": "ta", "lang3": null, "center_lat": 8.88089835, "center_lon": 80.1633428}, "type": "MultiPolygon", "arcs": [[[-205, -460, -436, 141, -182, 142, -213, -209]], [[144]]], "id": "feature_10"}, {"properties": {"adm2_name": "Vavuniya", "adm2_name1": "\u0dc0\u0dc0\u0dd4\u0db1\u0dd2\u0dba\u0dcf \u0daf\u0dd2\u0dc3\u0dca\u0dad\u0dca\u200d\u0dbb\u0dd2", "adm2_name2": "\u0bb5\u0bb5\u0bc1\u0ba9\u0bbf\u0baf\u0bbe \u0bae\u0bbe\u0bb5\u0b9f\u0bcd\u0b9f\u0bae\u0bcd", "adm2_name3": null, "adm2_pcode": "LK43", "adm1_name": "Northern", "adm1_name1": "\u0d8b\u0dad\u0dd4\u0dbb\u0dd4 \u0db4\u0dc5\u0dcf\u0dad", "adm1_name2": "\u0bb5\u0b9f \u0bae\u0bbe\u0b95\u0bbe\u0ba3\u0bae\u0bcd", "adm1_name3": null, "adm1_pcode": "LK4", "adm0_name": "Sri Lanka", "adm0_name1": "\u0dc1\u0dca\u200d\u0dbb\u0dd3 \u0dbd\u0d82\u0d9a\u0dcf", "adm0_name2": "\u0b87\u0bb2\u0b99\u0bcd\u0b95\u0bc8", "adm0_name3": null, "adm0_pcode": "LK", "valid_on": "2022-08-16", "valid_to": null, "area_sqkm": 1934.9087819, "version": "v03", "lang": "en", "lang1": "si", "lang2": "ta", "lang3": null, "center_lat": 8.83615187, "center_lon": 80.48643485}, "type": "Polygon", "arcs": [[-461, 204, -208, -207, -206]], "id": "feature_11"}, {"properties": {"adm2_name": "Mullaitivu", "adm2_name1": "\u0db8\u0dd4\u0dbd\u0dad\u0dd2\u0dc0\u0dd4 \u0daf\u0dd2\u0dc3\u0dca\u0dad\u0dca\u200d\u0dbb\u0dd2", "adm2_name2": "\u0bae\u0bc1\u0bb2\u0bcd\u0bb2\u0bc8\u0ba4\u0bcd\u0ba4\u0bc0\u0bb5\u0bc1 \u0bae\u0bbe\u0bb5\u0b9f", "adm2_name3": null, "adm2_pcode": "LK44", "adm1_name": "Northern", "adm1_name1": "\u0d8b\u0dad\u0dd4\u0dbb\u0dd4 \u0db4\u0dc5\u0dcf\u0dad", "adm1_name2": "\u0bb5\u0b9f \u0bae\u0bbe\u0b95\u0bbe\u0ba3\u0bae\u0bcd", "adm1_name3": null, "adm1_pcode": "LK4", "adm0_name": "Sri Lanka", "adm0_name1": "\u0dc1\u0dca\u200d\u0dbb\u0dd3 \u0dbd\u0d82\u0d9a\u0dcf", "adm0_name2": "\u0b87\u0bb2\u0b99\u0bcd\u0b95\u0bc8", "adm0_name3": null, "adm0_pcode": "LK", "valid_on": "2022-08-16", "valid_to": null, "area_sqkm": 2681.14833978, "version": "v03", "lang": "en", "lang1": "si", "lang2": "ta", "lang3": null, "center_lat": 9.18102023, "center_lon": 80.52648228}, "type": "Polygon", "arcs": [[-427, -462, 205, 206, 207, 208, -212, 209, 210]], "id": "feature_12"}, {"properties": {"adm2_name": "Kilinochchi", "adm2_name1": "\u0d9a\u0dd2\u0dbd\u0dd2\u0db1\u0ddc\u0da0\u0dca\u0da0\u0dd2 \u0daf\u0dd2\u0dc3\u0dca\u0dad\u0dca", "adm2_name2": "\u0b95\u0bbf\u0bb3\u0bbf\u0ba8\u0bca\u0b9a\u0bcd\u0b9a\u0bbf \u0bae\u0bbe\u0bb5\u0b9f\u0bcd\u0b9f", "adm2_name3": null, "adm2_pcode": "LK45", "adm1_name": "Northern", "adm1_name1": "\u0d8b\u0dad\u0dd4\u0dbb\u0dd4 \u0db4\u0dc5\u0dcf\u0dad", "adm1_name2": "\u0bb5\u0b9f \u0bae\u0bbe\u0b95\u0bbe\u0ba3\u0bae\u0bcd", "adm1_name3": null, "adm1_pcode": "LK4", "adm0_name": "Sri Lanka", "adm0_name1": "\u0dc1\u0dca\u200d\u0dbb\u0dd3 \u0dbd\u0d82\u0d9a\u0dcf", "adm0_name2": "\u0b87\u0bb2\u0b99\u0bcd\u0b95\u0bc8", "adm0_name3": null, "adm0_pcode": "LK", "valid_on": "2022-08-16", "valid_to": null, "area_sqkm": 1319.2903411, "version": "v03", "lang": "en", "lang1": "si", "lang2": "ta", "lang3": null, "center_lat": 9.44765191, "center_lon": 80.38569529}, "type": "Polygon", "arcs": [[211, 212, 213, 214]], "id": "feature_13"}, {"properties": {"adm2_name": "Batticaloa", "adm2_name1": "\u0db8\u0da9\u0d9a\u0dbd\u0db4\u0dd4\u0dc0 \u0daf\u0dd2\u0dc3\u0dca\u0dad\u0dca\u200d\u0dbb\u0dd2", "adm2_name2": "\u0bae\u0b9f\u0bcd\u0b9f\u0b95\u0bcd\u0b95\u0bb3\u0baa\u0bcd\u0baa\u0bc1 \u0bae\u0bbe\u0bb5\u0b9f", "adm2_name3": null, "adm2_pcode": "LK51", "adm1_name": "Eastern", "adm1_name1": "\u0db1\u0dd0\u0d9c\u0dd9\u0db1\u0dc4\u0dd2\u0dbb \u0db4\u0dc5\u0dcf\u0dad", "adm1_name2": "\u0b95\u0bbf\u0bb4\u0b95\u0bcd\u0b95\u0bc1 \u0bae\u0bbe\u0b95\u0bbe\u0ba3\u0bae\u0bcd", "adm1_name3": null, "adm1_pcode": "LK5", "adm0_name": "Sri Lanka", "adm0_name1": "\u0dc1\u0dca\u200d\u0dbb\u0dd3 \u0dbd\u0d82\u0d9a\u0dcf", "adm0_name2": "\u0b87\u0bb2\u0b99\u0bcd\u0b95\u0bc8", "adm0_name3": null, "adm0_pcode": "LK", "valid_on": "2022-08-16", "valid_to": null, "area_sqkm": 2480.50227079, "version": "v03", "lang": "en", "lang1": "si", "lang2": "ta", "lang3": null, "center_lat": 7.8342014, "center_lon": 81.38553422}, "type": "MultiPolygon", "arcs": [[[391, -424, -423, 422, -422, -421, 420, -420, -467, -426], [392]], [[-416, 404], [405]]], "id": "feature_14"}, {"properties": {"adm2_name": "Ampara", "adm2_name1": "\u0d85\u0db8\u0dca\u0db4\u0dcf\u0dbb \u0daf\u0dd2\u0dc3\u0dca\u0dad\u0dca\u200d\u0dbb\u0dd2\u0d9a", "adm2_name2": "\u0b85\u0bae\u0bcd\u0baa\u0bbe\u0bb1\u0bc8 \u0bae\u0bbe\u0bb5\u0b9f\u0bcd\u0b9f\u0bae\u0bcd", "adm2_name3": null, "adm2_pcode": "LK52", "adm1_name": "Eastern", "adm1_name1": "\u0db1\u0dd0\u0d9c\u0dd9\u0db1\u0dc4\u0dd2\u0dbb \u0db4\u0dc5\u0dcf\u0dad", "adm1_name2": "\u0b95\u0bbf\u0bb4\u0b95\u0bcd\u0b95\u0bc1 \u0bae\u0bbe\u0b95\u0bbe\u0ba3\u0bae\u0bcd", "adm1_name3": null, "adm1_pcode": "LK5", "adm0_name": "Sri Lanka", "adm0_name1": "\u0dc1\u0dca\u200d\u0dbb\u0dd3 \u0dbd\u0d82\u0d9a\u0dcf", "adm0_name2": "\u0b87\u0bb2\u0b99\u0bcd\u0b95\u0bc8", "adm0_name3": null, "adm0_pcode": "LK", "valid_on": "2022-08-16", "valid_to": null, "area_sqkm": 4474.65656606, "version": "v03", "lang": "en", "lang1": "si", "lang2": "ta", "lang3": null, "center_lat": 7.12509974, "center_lon": 81.68550912}, "type": "Polygon", "arcs": [[414, 415, 416, 417, -483, -480, 418, -474, -473, 472, -472, -471, 470, -470, -469, -468, 419, -421, 420, 421, -423, 422, 423]], "id": "feature_15"}, {"properties": {"adm2_name": "Trincomalee", "adm2_name1": "\u0dad\u0dca\u200d\u0dbb\u0dd2\u0d9a\u0dd4\u0dab\u0dcf\u0db8\u0dc5\u0dba \u0daf\u0dd2\u0dc3\u0dca", "adm2_name2": "\u0ba4\u0bbf\u0bb0\u0bc1\u0b95\u0bcb\u0ba3\u0bae\u0bb2\u0bc8 \u0bae\u0bbe\u0bb5\u0b9f\u0bcd\u0b9f", "adm2_name3": null, "adm2_pcode": "LK53", "adm1_name": "Eastern", "adm1_name1": "\u0db1\u0dd0\u0d9c\u0dd9\u0db1\u0dc4\u0dd2\u0dbb \u0db4\u0dc5\u0dcf\u0dad", "adm1_name2": "\u0b95\u0bbf\u0bb4\u0b95\u0bcd\u0b95\u0bc1 \u0bae\u0bbe\u0b95\u0bbe\u0ba3\u0bae\u0bcd", "adm1_name3": null, "adm1_pcode": "LK5", "adm0_name": "Sri Lanka", "adm0_name1": "\u0dc1\u0dca\u200d\u0dbb\u0dd3 \u0dbd\u0d82\u0d9a\u0dcf", "adm0_name2": "\u0b87\u0bb2\u0b99\u0bcd\u0b95\u0bc8", "adm0_name3": null, "adm0_pcode": "LK", "valid_on": "2022-08-16", "valid_to": null, "area_sqkm": 2692.10623294, "version": "v03", "lang": "en", "lang1": "si", "lang2": "ta", "lang3": null, "center_lat": 8.56827393, "center_lon": 81.06290663}, "type": "Polygon", "arcs": [[424, 425, -466, -465, 464, -464, -463, 426]], "id": "feature_16"}, {"properties": {"adm2_name": "Kurunegala", "adm2_name1": "\u0d9a\u0dd4\u0dbb\u0dd4\u0dab\u0dd1\u0d9c\u0dbd \u0daf\u0dd2\u0dc3\u0dca\u0dad\u0dca\u200d\u0dbb", "adm2_name2": "\u0b95\u0bc1\u0bb0\u0bc1\u0ba8\u0bbe\u0b95\u0bb2\u0bcd \u0bae\u0bbe\u0bb5\u0b9f\u0bcd\u0b9f\u0bae", "adm2_name3": null, "adm2_pcode": "LK61", "adm1_name": "North Western", "adm1_name1": "\u0dc0\u0dba\u0db9 \u0db4\u0dc5\u0dcf\u0dad", "adm1_name2": "\u0bb5\u0b9f \u0bae\u0bc7\u0bb2\u0bcd \u0bae\u0bbe\u0b95\u0bbe\u0ba3\u0bae\u0bcd", "adm1_name3": null, "adm1_pcode": "LK6", "adm0_name": "Sri Lanka", "adm0_name1": "\u0dc1\u0dca\u200d\u0dbb\u0dd3 \u0dbd\u0d82\u0d9a\u0dcf", "adm0_name2": "\u0b87\u0bb2\u0b99\u0bcd\u0b95\u0bc8", "adm0_name3": null, "adm0_pcode": "LK", "valid_on": "2022-08-16", "valid_to": null, "area_sqkm": 4905.70704421, "version": "v03", "lang": "en", "lang1": "si", "lang2": "ta", "lang3": null, "center_lat": 7.72795301, "center_lon": 80.25743281}, "type": "Polygon", "arcs": [[427, 428, -503, 429, -433, -432, 431, -431, -458]], "id": "feature_17"}, {"properties": {"adm2_name": "Puttalam", "adm2_name1": "\u0db4\u0dd4\u0dad\u0dca\u0dad\u0dbd\u0db8 \u0daf\u0dd2\u0dc3\u0dca\u0dad\u0dca\u200d\u0dbb\u0dd2", "adm2_name2": "\u0baa\u0bc1\u0ba4\u0bcd\u0ba4\u0bb3\u0bae\u0bcd \u0bae\u0bbe\u0bb5\u0b9f\u0bcd\u0b9f\u0bae\u0bcd", "adm2_name3": null, "adm2_pcode": "LK62", "adm1_name": "North Western", "adm1_name1": "\u0dc0\u0dba\u0db9 \u0db4\u0dc5\u0dcf\u0dad", "adm1_name2": "\u0bb5\u0b9f \u0bae\u0bc7\u0bb2\u0bcd \u0bae\u0bbe\u0b95\u0bbe\u0ba3\u0bae\u0bcd", "adm1_name3": null, "adm1_pcode": "LK6", "adm0_name": "Sri Lanka", "adm0_name1": "\u0dc1\u0dca\u200d\u0dbb\u0dd3 \u0dbd\u0d82\u0d9a\u0dcf", "adm0_name2": "\u0b87\u0bb2\u0b99\u0bcd\u0b95\u0bc8", "adm0_name3": null, "adm0_pcode": "LK", "valid_on": "2022-08-16", "valid_to": null, "area_sqkm": 3159.93794248, "version": "v03", "lang": "en", "lang1": "si", "lang2": "ta", "lang3": null, "center_lat": 7.9161926, "center_lon": 79.91290159}, "type": "Polygon", "arcs": [[-459, 430, -432, 431, 432, 433, 434, 435]], "id": "feature_18"}, {"properties": {"adm2_name": "Anuradhapura", "adm2_name1": "\u0d85\u0db1\u0dd4\u0dbb\u0dcf\u0db0\u0db4\u0dd4\u0dbb \u0daf\u0dd2\u0dc3\u0dca\u0dad\u0dca\u200d", "adm2_name2": "\u0b85\u0ba9\u0bc1\u0bb0\u0bbe\u0ba4\u0baa\u0bc1\u0bb0\u0bae\u0bcd \u0bae\u0bbe\u0bb5\u0b9f\u0bcd", "adm2_name3": null, "adm2_pcode": "LK71", "adm1_name": "North Central", "adm1_name1": "\u0d8b\u0dad\u0dd4\u0dbb\u0dd4 \u0db8\u0dd0\u0daf \u0db4\u0dc5\u0dcf\u0dad", "adm1_name2": "\u0bb5\u0b9f \u0bae\u0ba4\u0bcd\u0ba4\u0bbf\u0baf \u0bae\u0bbe\u0b95\u0bbe\u0ba3\u0bae\u0bcd", "adm1_name3": null, "adm1_pcode": "LK7", "adm0_name": "Sri Lanka", "adm0_name1": "\u0dc1\u0dca\u200d\u0dbb\u0dd3 \u0dbd\u0d82\u0d9a\u0dcf", "adm0_name2": "\u0b87\u0bb2\u0b99\u0bcd\u0b95\u0bc8", "adm0_name3": null, "adm0_pcode": "LK", "valid_on": "2022-08-16", "valid_to": null, "area_sqkm": 7218.28722087, "version": "v03", "lang": "en", "lang1": "si", "lang2": "ta", "lang3": null, "center_lat": 8.36940484, "center_lon": 80.4398676}, "type": "Polygon", "arcs": [[-476, 454, -456, 455, 456, 457, 458, 459, 460, 461, 462]], "id": "feature_19"}, {"properties": {"adm2_name": "Polonnaruwa", "adm2_name1": "\u0db4\u0ddc\u0dc5\u0ddc\u0db1\u0dca\u0db1\u0dbb\u0dd4\u0dc0 \u0daf\u0dd2\u0dc3\u0dca\u0dad\u0dca", "adm2_name2": "\u0baa\u0bca\u0bb2\u0ba9\u0bcd\u0ba9\u0bb1\u0bc1\u0bb5\u0bc8 \u0bae\u0bbe\u0bb5\u0b9f\u0bcd\u0b9f", "adm2_name3": null, "adm2_pcode": "LK72", "adm1_name": "North Central", "adm1_name1": "\u0d8b\u0dad\u0dd4\u0dbb\u0dd4 \u0db8\u0dd0\u0daf \u0db4\u0dc5\u0dcf\u0dad", "adm1_name2": "\u0bb5\u0b9f \u0bae\u0ba4\u0bcd\u0ba4\u0bbf\u0baf \u0bae\u0bbe\u0b95\u0bbe\u0ba3\u0bae\u0bcd", "adm1_name3": null, "adm1_pcode": "LK7", "adm0_name": "Sri Lanka", "adm0_name1": "\u0dc1\u0dca\u200d\u0dbb\u0dd3 \u0dbd\u0d82\u0d9a\u0dcf", "adm0_name2": "\u0b87\u0bb2\u0b99\u0bcd\u0b95\u0bc8", "adm0_name3": null, "adm0_pcode": "LK", "valid_on": "2022-08-16", "valid_to": null, "area_sqkm": 3469.71640746, "version": "v03", "lang": "en", "lang1": "si", "lang2": "ta", "lang3": null, "center_lat": 7.99389161, "center_lon": 81.05057482}, "type": "Polygon", "arcs": [[463, -465, 464, 465, 466, 467, 468, 469, -471, 470, 471, -473, 472, 473, 474, 475]], "id": "feature_20"}, {"properties": {"adm2_name": "Badulla", "adm2_name1": "\u0db6\u0daf\u0dd4\u0dbd\u0dca\u0dbd \u0daf\u0dd2\u0dc3\u0dca\u0dad\u0dca\u200d\u0dbb\u0dd2\u0d9a", "adm2_name2": "\u0baa\u0ba4\u0bc1\u0bb3\u0bc8 \u0bae\u0bbe\u0bb5\u0b9f\u0bcd\u0b9f\u0bae\u0bcd", "adm2_name3": null, "adm2_pcode": "LK81", "adm1_name": "Uva", "adm1_name1": "\u0d8c\u0dc0 \u0db4\u0dc5\u0dcf\u0dad", "adm1_name2": "\u0b8a\u0bb5\u0bbe \u0bae\u0bbe\u0b95\u0bbe\u0ba3\u0bae\u0bcd", "adm1_name3": null, "adm1_pcode": "LK8", "adm0_name": "Sri Lanka", "adm0_name1": "\u0dc1\u0dca\u200d\u0dbb\u0dd3 \u0dbd\u0d82\u0d9a\u0dcf", "adm0_name2": "\u0b87\u0bb2\u0b99\u0bcd\u0b95\u0bc8", "adm0_name3": null, "adm0_pcode": "LK", "valid_on": "2022-08-16", "valid_to": null, "area_sqkm": 2871.95592779, "version": "v03", "lang": "en", "lang1": "si", "lang2": "ta", "lang3": null, "center_lat": 7.08201712, "center_lon": 81.08871712}, "type": "Polygon", "arcs": [[-482, -485, 476, 477, 478, 479]], "id": "feature_21"}, {"properties": {"adm2_name": "Monaragala", "adm2_name1": "\u0db8\u0ddc\u0dab\u0dbb\u0dcf\u0d9c\u0dbd \u0daf\u0dd2\u0dc3\u0dca\u0dad\u0dca\u200d\u0dbb\u0dd2", "adm2_name2": "\u0bae\u0bca\u0ba3\u0bb0\u0bbe\u0b95\u0bb2\u0bc8 \u0bae\u0bbe\u0bb5\u0b9f\u0bcd\u0b9f\u0bae\u0bcd", "adm2_name3": null, "adm2_pcode": "LK82", "adm1_name": "Uva", "adm1_name1": "\u0d8c\u0dc0 \u0db4\u0dc5\u0dcf\u0dad", "adm1_name2": "\u0b8a\u0bb5\u0bbe \u0bae\u0bbe\u0b95\u0bbe\u0ba3\u0bae\u0bcd", "adm1_name3": null, "adm1_pcode": "LK8", "adm0_name": "Sri Lanka", "adm0_name1": "\u0dc1\u0dca\u200d\u0dbb\u0dd3 \u0dbd\u0d82\u0d9a\u0dcf", "adm0_name2": "\u0b87\u0bb2\u0b99\u0bcd\u0b95\u0bc8", "adm0_name3": null, "adm0_pcode": "LK", "valid_on": "2022-08-16", "valid_to": null, "area_sqkm": 5757.9888915, "version": "v03", "lang": "en", "lang1": "si", "lang2": "ta", "lang3": null, "center_lat": 6.87260111, "center_lon": 81.37070159}, "type": "Polygon", "arcs": [[480, -486, 481, 482]], "id": "feature_22"}, {"properties": {"adm2_name": "Ratnapura", "adm2_name1": "\u0dbb\u0dad\u0dca\u0db1\u0db4\u0dd4\u0dbb \u0daf\u0dd2\u0dc3\u0dca\u0dad\u0dca\u200d\u0dbb\u0dd2", "adm2_name2": "\u0b87\u0bb0\u0ba4\u0bcd\u0ba4\u0bbf\u0ba9\u0baa\u0bc1\u0bb0\u0bae\u0bcd \u0bae\u0bbe\u0bb5\u0b9f", "adm2_name3": null, "adm2_pcode": "LK91", "adm1_name": "Sabaragamuwa", "adm1_name1": "\u0dc3\u0db6\u0dbb\u0d9c\u0db8\u0dd4\u0dc0 \u0db4\u0dc5\u0dcf\u0dad", "adm1_name2": "\u0b9a\u0baa\u0bb0\u0b95\u0bae\u0bc1\u0bb5 \u0bae\u0bbe\u0b95\u0bbe\u0ba3\u0bae\u0bcd", "adm1_name3": null, "adm1_pcode": "LK9", "adm0_name": "Sri Lanka", "adm0_name1": "\u0dc1\u0dca\u200d\u0dbb\u0dd3 \u0dbd\u0d82\u0d9a\u0dcf", "adm0_name2": "\u0b87\u0bb2\u0b99\u0bcd\u0b95\u0bc8", "adm0_name3": null, "adm0_pcode": "LK", "valid_on": "2022-08-16", "valid_to": null, "area_sqkm": 3287.07575047, "version": "v03", "lang": "en", "lang1": "si", "lang2": "ta", "lang3": null, "center_lat": 6.57988046, "center_lon": 80.59000103}, "type": "Polygon", "arcs": [[496, 483, 484, 485, 486, 487, 488, 489, 490, 491, 492, 493, -498, -497]], "id": "feature_23"}, {"properties": {"adm2_name": "Kegalle", "adm2_name1": "\u0d9a\u0dd1\u0d9c\u0dbd\u0dca\u0dbd \u0daf\u0dd2\u0dc3\u0dca\u0dad\u0dca\u200d\u0dbb\u0dd2\u0d9a", "adm2_name2": "\u0b95\u0bc7\u0b95\u0bbe\u0bb2\u0bc8 \u0bae\u0bbe\u0bb5\u0b9f\u0bcd\u0b9f\u0bae\u0bcd", "adm2_name3": null, "adm2_pcode": "LK92", "adm1_name": "Sabaragamuwa", "adm1_name1": "\u0dc3\u0db6\u0dbb\u0d9c\u0db8\u0dd4\u0dc0 \u0db4\u0dc5\u0dcf\u0dad", "adm1_name2": "\u0b9a\u0baa\u0bb0\u0b95\u0bae\u0bc1\u0bb5 \u0bae\u0bbe\u0b95\u0bbe\u0ba3\u0bae\u0bcd", "adm1_name3": null, "adm1_pcode": "LK9", "adm0_name": "Sri Lanka", "adm0_name1": "\u0dc1\u0dca\u200d\u0dbb\u0dd3 \u0dbd\u0d82\u0d9a\u0dcf", "adm0_name2": "\u0b87\u0bb2\u0b99\u0bcd\u0b95\u0bc8", "adm0_name3": null, "adm0_pcode": "LK", "valid_on": "2022-08-16", "valid_to": null, "area_sqkm": 1657.73209228, "version": "v03", "lang": "en", "lang1": "si", "lang2": "ta", "lang3": null, "center_lat": 7.11288961, "center_lon": 80.32145399}, "type": "Polygon", "arcs": [[494, 495, 496, 497, 498, 499, -501, 500, 501, 502]], "id": "feature_24"}], "type": "GeometryCollection"}}, "arcs": [[[79.9011002839239, 6.715338820768655], [79.9011002839239, 6.850085962693238], [79.84942231228642, 6.939594835201447], [79.86917645803707, 6.973810019301699], [79.86917645803707, 6.978104958199305]], [[80.17929025559198, 6.977556549444977], [79.8982571770339, 6.977556549444977], [79.8815882031342, 6.9679327128768715], [79.87898465282001, 6.972442194301114], [79.86917645803707, 6.978104958199305]], [[79.86917645803707, 6.978104958199305], [79.86917645803707, 7.224074104087936], [79.84100144183711, 7.272874663650355]], [[80.16061693941593, 7.202560826934789]], [[79.9854838680073, 6.443602282999361], [79.9854838680073, 6.5691821658114495], [79.9011002839239, 6.715338820768655]], [[79.9011002839239, 6.715338820768655], [79.99758012223126, 6.77104148138678], [80.00062057127121, 6.77104148138678]], [[80.0005969938518, 6.77104148138678], [80.00062057127121, 6.77104148138678]], [[80.00062057127121, 6.77104148138678], [80.10009247072496, 6.77104148138678], [80.17771056849122, 6.815854311026116]], [[79.97079513571225, 6.4721978823321535]], [[79.97162034539176, 6.469769214991561]], [[79.9697105744192, 6.4618564601076915]], [[79.97956593573433, 6.448381273572787]], [[79.9793537389596, 6.447010251686968]], [[79.97916511960429, 6.441486992089812]], [[80.97387286726975, 7.488399304101076], [80.83656773728534, 7.488399304101076], [80.70738862087873, 7.413817706470043], [80.70738862087873, 7.400601289524791], [80.69952601496618, 7.386982856604363]], [[80.69952601496618, 7.386982856604363], [80.6995495923856, 7.386982856604363]], [[80.6995495923856, 7.386982856604363], [80.68929315401164, 7.386982856604363], [80.56560627269356, 7.458393510828584]], [[80.46712339180047, 7.022251862922672], [80.55843997202376, 7.074973515096066], [80.57570727010814, 7.074973515096066], [80.60427596053458, 7.124455938420365], [80.79360792404144, 7.233766798517251], [80.85172913157528, 7.200210503701957], [80.94774908655883, 7.200210503701957]], [[80.38191459803757, 5.9649589566330645], [80.12382836288643, 6.113965113971716], [80.12053530362296, 6.113965113971716], [80.12053530362296, 6.2094091851456215], [79.98805380672344, 6.438873868838361], [79.98805380672344, 6.4391510185706515], [79.9854838680073, 6.443602282999361]], [[79.9854838680073, 6.443602282999361], [80.13432440645332, 6.443602282999361], [80.29780157749121, 6.349218694294272], [80.32284867731927, 6.392601543778707], [80.38092434642218, 6.426131546968641]], [[80.09879694571191, 6.139627144886385]], [[80.7237871795434, 5.978904207814536], [80.5051584015241, 5.978904207814536], [80.44730048805279, 5.945499925897129], [80.4135964581521, 5.9649589566330645], [80.38191459803757, 5.9649589566330645]], [[80.38191459803757, 5.9649589566330645], [80.38191459803757, 6.192584430867612], [80.39749192876869, 6.219565159140215], [80.39749192876869, 6.242413254550007], [80.46010116480204, 6.350855632382847], [80.46580326932562, 6.350855632382847], [80.49576995638871, 6.368156907225444]], [[80.42574502072856, 5.968210237105149]], [[80.61144077603475, 5.9279805377698365]], [[81.70703630137355, 6.510704011296723], [81.48166823732404, 6.3805876988509995], [81.4144282416753, 6.264124610086649], [81.1537075911234, 6.113597472307223], [81.09844971860655, 6.113597472307223], [80.94944123417727, 6.113597472307223], [80.75332635382037, 6.000370493341071], [80.749505592368, 5.993752740381947], [80.7237871795434, 5.978904207814536]], [[80.7237871795434, 5.978904207814536], [80.70684514768979, 5.988685694465834], [80.70414718917137, 5.993358695696455]], [[80.70414718917137, 5.993358695696455], [80.70414718917137, 5.993319523642574]], [[80.70414718917137, 5.993319523642574], [80.70414718917137, 6.040053865097351], [80.61000061424312, 6.203120516231663], [80.6683588822344, 6.304200001434282], [80.67071440844204, 6.305559965124345]], [[80.25752013320827, 9.613248194796991]], [[80.25752013320827, 9.613248194796991], [80.20239311073504, 9.581420593532453], [80.19914281288733, 9.581420593532453], [80.14263868965254, 9.581420593532453], [80.02641528838993, 9.64852220553756], [79.96721865325215, 9.614345012305646], [79.87583274768369, 9.614345012305646], [79.89207582677665, 9.623722958392436], [79.89232667099995, 9.624157433331977], [79.9623965002794, 9.624157433331977], [79.98226150744057, 9.63562650056393], [79.95949548282368, 9.675058411886745], [79.8926595677736, 9.71364614543244], [80.01397960534726, 9.783690301783682], [80.03292434939725, 9.816503561014658], [80.25019371421224, 9.691063034752057], [80.3373919235139, 9.691063034752057], [80.39580335084382, 9.589891474874019], [80.6228050921924, 9.458831958399909]], [[79.90598080974263, 9.751643061156933]], [[79.81195406111883, 9.685403118044942]], [[79.84788604830605, 9.711256673606098]], [[79.86486179028428, 9.707456984379686]], [[79.79104089009843, 9.686813311984642]], [[79.7762106932869, 9.644664182009183]], [[79.9153882000889, 9.679919030501667]], [[79.93568835820452, 9.678312976292565]], [[79.93689080659465, 9.676902782352865]], [[79.90569788070967, 9.677333674945551]], [[79.93894204208368, 9.677059470568388]], [[79.93778674853237, 9.674160738581229]], [[79.9388241549866, 9.673651501880782]], [[79.93394362916787, 9.670361049354817]], [[79.93354281303783, 9.667344801206015]], [[79.93455664207264, 9.668794167199595]], [[79.93436802271732, 9.667344801206015]], [[80.16533242329878, 9.655514840934092]], [[79.99161399705498, 9.652694453054693]], [[80.07936915211462, 9.652851141270215]], [[80.07703498759261, 9.652341904569768]], [[80.16170150070899, 9.652146044300366]], [[80.16358769426212, 9.64803297864291]], [[80.01335237775487, 9.641177869213815]], [[80.16467225555517, 9.648463871235595]], [[80.16028685554414, 9.646426924433808]], [[80.09250177472833, 9.642509719045753]], [[80.16507307168521, 9.639493470896952]], [[80.16450721361927, 9.64513424665575]], [[80.16243240071083, 9.644899214332467]], [[80.00024333256059, 9.645290934871271]], [[80.16321045555149, 9.644899214332467]], [[80.19496923950241, 9.643293160123363]], [[80.08309438438206, 9.644350805578139]], [[79.99012861963189, 9.643528192446647]], [[79.98454077123073, 9.64219634261471]], [[80.19562940724602, 9.642392202884112]], [[79.85873166123659, 9.642039654399188]], [[80.00578402612292, 9.641138697159935]], [[80.16552104265409, 9.638905890088743]], [[80.2027497879091, 9.64015939581292]], [[79.85849588704245, 9.639767675274115]], [[79.85309665799659, 9.62703675776294]], [[80.0052417454764, 9.633460974599348]], [[80.1746690813868, 9.632560017360097]], [[79.98439930671424, 9.632285812982932]], [[80.1768382039729, 9.630170522073383]], [[80.18122360398394, 9.628642811972043]], [[80.17523493945274, 9.628211919379357]], [[80.18150653301691, 9.628211919379357]], [[80.20223108468198, 9.627585166517267]], [[80.17806422978244, 9.62629248873921]], [[79.86177314834102, 9.62480395069175]], [[79.83869085473452, 9.623589617021453]], [[80.19171555562326, 9.623707133183096]], [[80.19107896529907, 9.622884520051604]], [[80.18669356528804, 9.622179423081754]], [[79.98270173251642, 9.622453627458917]], [[79.98152286154571, 9.622140251027874]], [[79.77326351586014, 9.584613423410318]], [[79.98237164864463, 9.621670186381307]], [[80.19324808788518, 9.618144701532058]], [[79.84260470635728, 9.62033833654937]], [[80.00745802290133, 9.619829099848921]], [[79.86167883866337, 9.618379733855342]], [[80.00623199709179, 9.618575594124746]], [[80.19258792014158, 9.617988013316538]], [[80.19305946852987, 9.617870497154895]], [[80.17863008784838, 9.608665064492968]], [[80.20166522661604, 9.617988013316538]], [[80.18127075882276, 9.617282916346687]], [[79.8551007386468, 9.616734507592358]], [[79.85868450639776, 9.61677367964624]], [[79.98244238090287, 9.617047884023403]], [[79.98225376154755, 9.617008711969524]], [[79.86052354511206, 9.616656163484599]], [[79.9823480712252, 9.616656163484599]], [[80.18306264269825, 9.615833550353107]], [[79.98218302928932, 9.613404883012514]], [[80.1795024523667, 9.606706461798941]], [[79.98239522606404, 9.613404883012514]], [[79.96716421312247, 9.609095957085653]], [[79.9695455324833, 9.607999139577]], [[80.17773414591063, 9.606667289745062]], [[80.17860651042896, 9.606549773583419]], [[80.1778284555883, 9.606275569206256]], [[80.17705040074763, 9.605570472236407]], [[80.18042197172386, 9.60588384866745]], [[80.18086994269272, 9.60588384866745]], [[80.18016262011031, 9.604943719374317]], [[80.17851220075131, 9.605687988398047]], [[80.17893659430077, 9.604787031158795]], [[80.18079921043449, 9.60513957964372]], [[80.178323581396, 9.604591170889393]], [[80.18086994269272, 9.604943719374317]], [[80.18094067495097, 9.604747859104915]], [[80.18167157495282, 9.604277794458348]], [[80.1970912072497, 9.602280019710442]], [[80.18702364915983, 9.59503318974254]], [[80.19317735562694, 9.600203900854773]], [[80.1967611233779, 9.599342115669401]], [[80.19565298466543, 9.598911223076716]], [[80.1964310395061, 9.595816630820153]], [[79.80191008044838, 9.59428892071881]], [[80.19150335884854, 9.594523953042094]], [[80.20237254919847, 9.592330318024784]], [[80.19562940724602, 9.592212801863143]], [[79.80101413851064, 9.57971691667525]], [[79.72382166734856, 9.476929447292719]], [[79.5253941055587, 9.393257940203888]], [[79.9205280775212, 8.566962635647815], [79.9205280775212, 8.854877069974021], [79.92637603016351, 8.865006021070764], [79.92637603016351, 8.90414270253117], [79.9145629904094, 8.92460348757713]], [[79.91463372266765, 8.92460348757713], [80.0091038398715, 8.97914583517515], [80.078206284836, 9.0988347807809], [80.078206284836, 9.141563063078408], [80.11871986511692, 9.211734642521474]], [[80.10829864573584, 9.198455316255972]], [[79.88884002582851, 8.960837637416628], [79.83836167230046, 8.989981328414293], [79.77365712509439, 9.102052891655967], [79.83508801676187, 8.995651466133612], [79.88870784665858, 8.964694042908853], [79.88884002582851, 8.964465101870818], [79.88884002582851, 8.960837637416628]], [[79.69864098341421, 9.098214030375676]], [[79.6979808156706, 9.098096514214033]], [[79.69633039631161, 9.09500192195747]], [[79.69769788663764, 9.094453513203144]], [[79.69791008341237, 9.09410096471822]], [[79.69753284470174, 9.094061792664338]], [[79.69668405760282, 9.089478662360314]], [[79.69550518663212, 9.087911780205093]], [[79.69585884792333, 9.08763757582793]], [[79.69609462211747, 9.086305725995992]], [[79.69484501888851, 9.079489788620778]], [[79.91557681944421, 8.972040844826461]], [[79.89428640971319, 8.957586356944542]], [[79.91609552267133, 8.958683174453197]], [[79.9198679097776, 8.958918206776481]], [[79.91661422589843, 8.958213109806632]], [[79.91647276138195, 8.958213109806632]], [[79.9165670710596, 8.95805642159111]], [[79.89124492260876, 8.95660705559753]], [[79.925526490437, 8.902275416865223]], [[79.92029230332705, 8.95366915155649]], [[79.95344215502341, 8.953865011825892]], [[79.923192325915, 8.953120742802161]], [[79.95301776147394, 8.95159303270082]], [[79.9195614033252, 8.95073124751545]], [[79.95249905824684, 8.949908634383958]], [[79.92180125816955, 8.94932105357575]], [[79.94981123243362, 8.948694300713662]], [[79.92111751300655, 8.947950031689931]], [[79.92177768075014, 8.948380924282617]], [[79.91677926783433, 8.947558311151125]], [[79.92156548397541, 8.948341752228735]], [[79.91741585815852, 8.94791085963605]], [[79.94771284210576, 8.946970730342917]], [[79.94582664855263, 8.946187289265307]], [[79.9022791548946, 8.941760847176806]], [[79.91463372266765, 8.92460348757713], [79.9145629904094, 8.92460348757713]], [[79.9145629904094, 8.92460348757713], [79.91463372266765, 8.92460348757713]], [[79.91361989363283, 8.923467498014594]], [[79.91883050332336, 8.917239141447588]], [[79.92882732915498, 8.907602816192977]], [[79.92578584205056, 8.9035289225894]], [[79.9281671614114, 8.900081781847913]], [[79.91899554525926, 8.83298005355055]], [[79.91937278396989, 8.831373999341448]], [[79.91828822267684, 8.828279407084885]], [[79.9187126162263, 8.828279407084885]], [[79.91732154848086, 8.826634180821904]], [[79.9168971549314, 8.821816018194598]], [[79.91819391299919, 8.823265384188177]], [[79.91779309686915, 8.823265384188177]], [[79.91826464525742, 8.820993405063106]], [[79.91694430977023, 8.82056251247042]], [[79.91812318074095, 8.818721425938035]], [[79.91743943557793, 8.81112204748521]], [[79.91616625492956, 8.810260262299838]], [[79.92029230332705, 8.811592112131777]], [[79.9187126162263, 8.809476821222228]], [[79.92026872590763, 8.80963350943775]], [[80.23521589444245, 8.680404903685854], [80.34124043466784, 8.864044794205368], [80.39079398199425, 8.89265454809357], [80.35871800479308, 8.948211770308417], [80.33997036889971, 8.959035722938122]], [[80.74505401185499, 8.903176374104476], [80.62831440805545, 9.105375299140753], [80.59251719363856, 9.12604283052058], [80.53128948426279, 9.090692996030612], [80.40504404648289, 9.090692996030612]], [[80.40504404648289, 9.090692996030612], [80.40502046906347, 9.090692996030612]], [[80.40502046906347, 9.090692996030612], [80.40502046906347, 9.071705801459197], [80.33997036889971, 8.959035722938122]], [[80.33997036889971, 8.959035722938122], [80.31341621134382, 8.974366772951118], [80.1951566838648, 9.179198283023885], [80.19173913304267, 9.185117654685246], [80.19173913304267, 9.237235649597705]], [[80.61721724379123, 9.452055193078577], [80.61973016546922, 9.453506029085814], [80.6228050921924, 9.458831958399909]], [[80.6228050921924, 9.458831958399909], [80.78238278843259, 9.18243528075711], [80.88622763726038, 9.122480429332427], [80.89012530561861, 9.120230109456585], [80.96722403499494, 8.986691192977784]], [[80.61721724379123, 9.452055193078577], [80.36248796407048, 9.30498717486132], [80.3549656252417, 9.30498717486132], [80.30908821708954, 9.30498717486132], [80.19173913304267, 9.237235649597705]], [[80.19173913304267, 9.237235649597705], [80.14757009314246, 9.211734642521474], [80.11871986511692, 9.211734642521474]], [[80.11871986511692, 9.211734642521474], [80.17262347437448, 9.305098432466908], [80.17262347437448, 9.467498333585066], [80.17262347437448, 9.51154220233322], [80.14494122149183, 9.559489270793925], [80.25383954021889, 9.496616797162565], [80.26522865296172, 9.476890275238837], [80.33439266023213, 9.476890275238837], [80.39221924311151, 9.510276468430563], [80.37039266715827, 9.54808120693685], [80.25752013320827, 9.613248194796991]], [[80.25752013320827, 9.613248194796991], [80.30874095476274, 9.613248194796991], [80.55935133113569, 9.468558226536357], [80.58863315136334, 9.468558226536357], [80.61721724379123, 9.452055193078577]], [[80.08045371340768, 9.61019277459431]], [[80.0683584972482, 9.609761882001624]], [[80.0896253295598, 9.59942045977716]], [[80.30064323331683, 9.586101961457778]], [[80.30116193654395, 9.585788585026734]], [[80.30104404944687, 9.584848455733601]], [[80.30344894622712, 9.58488762778748]], [[80.30597173010445, 9.58473093957196]], [[80.3489297882771, 9.55053373653425]], [[80.34968426569836, 9.5498286395644]], [[80.352395668931, 9.54975029545664]], [[80.19449769111414, 9.545167165152616]], [[80.35812498184865, 9.542738497812023]], [[80.20168880403546, 9.542346777273217]], [[80.21809868794774, 9.539095496801133]], [[80.22010276859795, 9.539056324747252]], [[80.202914829845, 9.536980205891584]], [[80.22380442344598, 9.536549313298897]], [[80.20857341050441, 9.536549313298897]], [[80.22488898473902, 9.53447319444323]], [[80.25754371062769, 9.498552421034775]], [[80.25730793643355, 9.498513248980895]], [[80.26174049128342, 9.498356560765373]], [[80.25975998805262, 9.49745560352612]], [[80.26423969774132, 9.49816070049597]], [[80.26263643322116, 9.49816070049597]], [[80.25334692997197, 9.496202097801943]], [[80.2607266622486, 9.49733808736448]], [[80.2861431203771, 9.495849549317018]], [[80.26273074289881, 9.495301140562692]], [[80.26216488483287, 9.495849549317018]], [[80.25553962997748, 9.491266419012995]], [[80.26178764612224, 9.495066108239408]], [[80.26093885902333, 9.494752731808363]], [[80.27720727841913, 9.49295081732986]], [[80.25860469450133, 9.491853999821203]], [[80.25744940095004, 9.491775655713443]], [[80.25459653320091, 9.49091387052807]], [[80.25558678481632, 9.490365461773743]], [[80.25723720417531, 9.490600494097027]], [[80.26098601386217, 9.487662590055987]], [[80.26327302354534, 9.487388385678823]], [[80.26680963645747, 9.486722460762852]], [[80.26664459452157, 9.484646341907185]], [[80.30384976235717, 9.484528825745542]], [[80.30785792365758, 9.476929447292719]], [[80.26600800419739, 9.484450481637783]], [[80.38123085287455, 9.484019589045095]], [[80.37859018190017, 9.483510352344648]], [[80.38787968514936, 9.48358869645241]], [[80.38677154643689, 9.483471180290769]], [[80.37906173028844, 9.48292277153644]], [[80.30363756558243, 9.482452706889875]], [[80.38443738191488, 9.482335190728232]], [[80.38361217223539, 9.482021814297187]], [[80.37745846576829, 9.481473405542861]], [[80.37236574317481, 9.477281995777643]], [[80.37821294318954, 9.48072913651913]], [[80.37889668835255, 9.4799848674954]], [[80.37719911415472, 9.479044738202267]], [[80.37722269157415, 9.478613845609582]], [[80.2783154171316, 9.47779123247809]], [[80.28232357843201, 9.477673716316449]], [[80.37670398834703, 9.477634544262568]], [[80.37413404963088, 9.476890275238837]], [[80.26994543323956, 9.475754285676302]], [[80.28286585907854, 9.474226575574962]], [[80.36925352381215, 9.474265747628841]], [[80.29008054941927, 9.472189628773172]], [[80.36913563671507, 9.474226575574962]], [[80.31085225592318, 9.47406988735944]], [[80.27727801067736, 9.473599822712872]], [[80.36826327219674, 9.473168930120186]], [[80.25719004933647, 9.471523703857205]], [[80.36227460766554, 9.47046605840243]], [[80.25935917192258, 9.471758736180487]], [[80.25865184934015, 9.471053639210638]], [[80.25834534288776, 9.471758736180487]], [[80.2740007493788, 9.470113509917505]], [[80.2598778751497, 9.471131983318399]], [[80.25367701384376, 9.47054440251019]], [[80.26940315259303, 9.469878477594222]], [[80.26412181064426, 9.465256175236318]], [[80.27385928486231, 9.468703315977805]], [[80.318184833361, 9.469917649648103]], [[80.36045914637064, 9.469917649648103]], [[80.2731755396993, 9.467841530792434]], [[80.3598932883047, 9.469330068839895]], [[80.33848499147662, 9.468664143923924]], [[80.29953509460437, 9.46901669240885]], [[80.2946074139468, 9.467253949984226]], [[80.2748495364777, 9.467371466145867]], [[80.27298692034398, 9.468507455708403]], [[80.29623425588639, 9.46756732641527]], [[80.31297422367047, 9.468115735169597]], [[80.29687084621057, 9.46760649846915]], [[80.3113709591503, 9.46756732641527]], [[80.28689759779836, 9.468037391061836]], [[80.29312203652371, 9.461848206548712]], [[80.28984477522513, 9.46756732641527]], [[80.35086313666908, 9.467293122038106]], [[80.29696515588822, 9.467332294091987]], [[80.35178265602623, 9.467214777930344]], [[80.2756511687378, 9.467371466145867]], [[80.35062736247492, 9.467097261768703]], [[80.35010865924782, 9.467058089714822]], [[80.29929932041023, 9.464942798805273]], [[80.35048589795845, 9.46682305739154]], [[80.350745249572, 9.466588025068257]], [[80.2715251203403, 9.466352992744973]], [[80.35173550118739, 9.466783885337659]], [[80.30847093656234, 9.466392164798854]], [[80.27451945260592, 9.466392164798854]], [[80.30517009784437, 9.465060314966916]], [[80.2851292913423, 9.46607878836781]], [[80.3193637043317, 9.462631647626322]], [[80.27961217519938, 9.4624749594108]], [[80.27885769777812, 9.463180056380649]], [[80.29967655912085, 9.46537369139796]], [[80.32511659466877, 9.465295347290198]], [[80.29222609458597, 9.465021142913034]], [[80.34951922376246, 9.46533451934408]], [[80.32704994306073, 9.46533451934408]], [[80.32820523661204, 9.465060314966916]], [[80.29988875589558, 9.464433562104826]], [[80.30906037204771, 9.464864454697512]], [[80.2866146687654, 9.46400266951214]], [[80.29651718491935, 9.46325840048841]], [[80.30017168492856, 9.463806809242739]], [[80.28722768167016, 9.464120185673782]], [[80.33567927856633, 9.463689293081096]], [[80.30514652042494, 9.463493432811694]], [[80.28751061070314, 9.462866679949606]], [[80.33541992695277, 9.463297572542292]], [[80.33617440437403, 9.463454260757814]], [[80.33572643340516, 9.463101712272888]], [[80.2999359107344, 9.462905852003486]], [[80.33494837856449, 9.463101712272888]], [[80.33459471727328, 9.463062540219008]], [[80.33567927856633, 9.462945024057365]], [[80.3351369979198, 9.462749163787963]], [[80.28810004618849, 9.462788335841845]], [[80.29734239459884, 9.462670819680202]], [[80.2881236236079, 9.459889603854684]], [[80.30012453008972, 9.462357443249157]], [[80.30293024300002, 9.462004894764233]], [[80.2951025397545, 9.461613174225429]], [[80.29196674297242, 9.460163808231847]], [[80.28057884939535, 9.460633872878415]], [[80.2929334171684, 9.460202980285729]], [[80.2828187042397, 9.45953705536976]], [[80.28942038167568, 9.459262850992596]], [[80.33582074308282, 9.458831958399909]], [[80.33605651727696, 9.458792786346029]], [[80.33058655597286, 9.45518895738902]], [[80.15733967811737, 9.455032269173497]], [[80.15705674908439, 9.453778763449321]], [[80.15733967811737, 9.448803912606492]], [[80.15682097489025, 9.44872556849873]], [[80.12579309094117, 9.430001326743835]], [[80.05944623270963, 9.330230105510102]], [[80.08955459730156, 9.311505863755205]], [[80.08424967793336, 9.318909381938628]], [[80.08443829728867, 9.318948553992508]], [[80.08839930375025, 9.313738670826396]], [[80.00781168419255, 9.279463123680925]], [[80.002601074502, 9.286709953648824]], [[79.99821567449096, 9.28345867317674]], [[79.9982864067492, 9.282988608530173]], [[79.99823925191038, 9.282949436476294]], [[80.00418076160275, 9.279071403142119]], [[79.99864006804042, 9.2805207691357]], [[80.00406287450568, 9.27903223108824]], [[80.00344986160091, 9.278875542872717]], [[80.00413360676393, 9.27832713411839]], [[80.00408645192509, 9.278209617956747]], [[81.40368922319053, 8.26600374568364], [81.5337615962831, 8.040711786826247], [81.5337615962831, 7.931929059259479], [81.5337615962831, 7.888344650012292], [81.52348609123405, 7.870546953193904], [81.53984287091436, 7.842216179739396], [81.65957893937093, 7.773086528384287], [81.58042677473752, 7.72738800482624], [81.57352231785833, 7.72738800482624], [81.58253362852984, 7.711779956900405], [81.71219975622526, 7.636917183170677], [81.71219975622526, 7.568893871035701], [81.74655652231347, 7.509386206587164], [81.75334235310302, 7.497632802888092], [81.75334235310302, 7.457962618235898]], [[81.38666632637347, 8.198040232200906], [81.42991502042156, 8.123131296748616], [81.42991502042156, 8.098628151385304], [81.42991502042156, 8.123131296748616], [81.38666632637347, 8.198040232200906]], [[81.44181391038327, 8.109707250700293]], [[81.46334009430844, 8.110138143292978]], [[81.52400479446115, 7.931356889382203]], [[81.52280234607103, 7.929045738203251]], [[81.51346568798301, 7.912515131465664]], [[81.51306487185296, 7.912358443250142]], [[81.51886491702886, 7.9073052482995525]], [[81.51704945573397, 7.904014795773587]], [[81.50985834281263, 7.902761290049409]], [[81.51601204927974, 7.8978647833143425]], [[81.51869987509296, 7.891440566477934]], [[81.79554593385443, 7.439786785235328], [81.79554593385443, 7.554192243614086], [81.71330574273486, 7.696636433057351], [81.81860465004152, 7.5142533756207275], [81.81860465004152, 7.4576492418048534]], [[81.80766472743333, 7.4976047367630025]], [[81.69630857554009, 7.71504880785387]], [[81.69437522714813, 7.703062159366426]], [[81.66469125610566, 7.699889223002102]], [[81.69918502070863, 7.654723844877841]], [[81.69510612714997, 7.6489263809035215]], [[81.72759581110273, 7.63643049571563]], [[81.7316982820808, 7.634041000428917]], [[81.77083679830835, 7.53673761858966]], [[81.75334235310302, 7.457962618235898], [81.76406446762755, 7.457962618235898], [81.79554593385443, 7.439786785235328]], [[81.79554593385443, 7.439786785235328], [81.79948591692408, 7.446611036092937], [81.81860465004152, 7.4576492418048534]], [[81.81860465004152, 7.4576492418048534], [81.87374224511501, 7.36214812573041], [81.87374224511501, 7.0372020417785155], [81.77118448143142, 6.8595667843678925], [81.77118448143142, 6.6602927098009115], [81.77118448143142, 6.621811918370031], [81.70703630137355, 6.510704011296723]], [[81.70703630137355, 6.510704011296723], [81.61935456475197, 6.561327085538203], [81.60850626564162, 6.580116890773037]], [[80.97950787050975, 7.621623459348787], [80.98846728988714, 7.637141628916744], [80.98846728988714, 7.720493723343266]], [[81.24036843890839, 7.7394921694753265], [81.38563502011647, 7.655622469710591], [81.4461993103943, 7.550722041825013]], [[81.44622288781373, 7.550722041825013], [81.4461993103943, 7.550722041825013]], [[81.4461993103943, 7.550722041825013], [81.44724219290451, 7.548915716331001], [81.50042737504695, 7.518209237104166]], [[81.50045095246638, 7.518209237104166], [81.50042737504695, 7.518209237104166]], [[81.50042737504695, 7.518209237104166], [81.60477757991103, 7.457962618235898], [81.75334235310302, 7.457962618235898]], [[80.96722403499494, 8.986691192977784], [81.11493039757535, 8.730856268387326], [81.2019018051092, 8.680643302835856], [81.2019018051092, 8.57067904684299], [81.19824488114011, 8.56434506872911], [81.17081750171116, 8.516839454039697], [81.15688457813027, 8.508795276859674], [81.16399208034008, 8.496484721917392], [81.38414223252367, 8.369380972292054], [81.38414223252367, 8.299860126653705], [81.40368922319053, 8.26600374568364]], [[81.40368922319053, 8.26600374568364], [81.37926394766967, 8.251901806286646], [81.31138362618395, 8.251901806286646]], [[80.75509799252544, 8.905840073768353], [80.8271857886754, 8.905840073768353], [80.96722403499494, 8.986691192977784]], [[80.50128707253164, 7.8169353199971505], [80.57220514098763, 7.694101622256719], [80.57220514098763, 7.492091248337857], [80.56560627269356, 7.480661673180061], [80.56560627269356, 7.458393510828584]], [[80.56560627269356, 7.458393510828584], [80.43742714147204, 7.384389254913349], [80.4211710013622, 7.3562327943081405]], [[80.19603022337606, 7.258224315499033], [80.16488799708696, 7.2762042882302005], [79.94160629047748, 7.2762042882302005]], [[80.10014085861853, 8.197922716039265], [80.10014085861853, 8.148602732174323], [80.11009052961131, 8.13136939649623]], [[80.11011410703072, 8.13136939649623], [80.11009052961131, 8.13136939649623]], [[80.11009052961131, 8.13136939649623], [80.11009052961131, 7.977811801886766], [80.04120235671836, 7.85849398639558], [80.04120235671836, 7.835796710086631], [79.90679317383736, 7.60299317633292], [79.94160629047748, 7.542695089542406], [79.94160629047748, 7.2762042882302005]], [[79.94160629047748, 7.2762042882302005], [79.93583921153505, 7.272874663650355], [79.84100144183711, 7.272874663650355]], [[79.84100144183711, 7.272874663650355], [79.84100144183711, 7.627399642279141], [79.79687403670661, 7.703830549971335], [79.79687403670661, 7.959144236194889], [79.70426335904699, 8.119550635224737], [79.76378699318991, 8.222648593811416], [79.76378699318991, 8.31421237271487], [79.76378699318991, 8.227566753700401], [79.74323081843765, 8.191962414620226], [79.82178241871355, 8.055907051926525], [79.82178241871355, 8.038654024275324], [79.82178241871355, 8.227955850907826], [79.81160580772578, 8.245582258187508], [79.81160580772578, 8.378303730286433], [79.9205280775212, 8.566962635647815]], [[79.9205280775212, 8.566962635647815], [79.99075074464363, 8.52641955988146], [80.0329923681269, 8.52641955988146]], [[79.80561173529641, 8.175085408626911]], [[79.74867226741112, 8.172500053070795]], [[79.74897877386351, 8.17868923758392]], [[79.75673574485079, 8.177553248021386]], [[79.77913429329426, 8.189304864185546]], [[79.77076430940222, 8.214100774291927]], [[79.78333107395, 8.219036453080875]], [[79.7795351094243, 8.237525662512489]], [[79.78132699329979, 8.240776942984574]], [[79.77599849651217, 8.244419943995464]], [[79.78045462878146, 8.271409489119154]], [[79.78693841912036, 8.274543253429599]], [[79.76145122873362, 8.278538802925413]], [[79.77408872553963, 8.272702166897213]], [[79.79278561913509, 8.282338492151824]], [[79.79653442882194, 8.305410831887462]], [[79.80268813528905, 8.338981282063083]], [[79.78802298041342, 8.547376608707546]], [[80.75564027317196, 8.011463739567903], [80.70780744194363, 7.983847441582124], [80.70141220851932, 7.983847441582124]], [[80.70141220851932, 7.983886613636004], [80.70141220851932, 7.983847441582124]], [[80.70141220851932, 7.983847441582124], [80.65692463902101, 7.9067927109058065], [80.50128707253164, 7.8169353199971505]], [[80.50128707253164, 7.8169353199971505], [80.3480598751503, 8.082332610963022], [80.3394448487517, 8.087306498773328], [80.29173376706422, 8.087306498773328], [80.10014085861853, 8.197922716039265]], [[80.10014085861853, 8.197922716039265], [80.10014085861853, 8.36674685686268], [80.0364612138688, 8.477043236977142], [80.0329923681269, 8.483051454045743], [80.0329923681269, 8.52641955988146]], [[80.0329923681269, 8.52641955988146], [80.20297243805514, 8.624557599011398], [80.23521589444245, 8.680404903685854]], [[80.23521589444245, 8.680404903685854], [80.43522494353311, 8.680404903685854], [80.43646823104329, 8.681122716064536], [80.52684717953439, 8.733303026304947], [80.60565291595921, 8.869798565720616], [80.68724195188885, 8.869798565720616], [80.74505401185499, 8.903176374104476]], [[80.74505401185499, 8.903176374104476], [80.7504843293715, 8.903176374104476], [80.75509799252544, 8.905840073768353]], [[80.75509799252544, 8.905840073768353], [80.89642104449412, 8.661061367477895], [80.89642104449412, 8.653239490470373], [80.89642104449412, 8.419862582428859], [80.94121814138109, 8.342271734589048]], [[80.94121814138109, 8.342271734589048], [81.0533256488883, 8.277546434951576], [81.05528569650697, 8.274151532890793]], [[81.05526211908754, 8.274151532890793], [81.05528569650697, 8.274151532890793]], [[81.05528569650697, 8.274151532890793], [81.13313187983898, 8.274151532890793], [81.2491092601226, 8.207191961164142], [81.25669193876728, 8.22032554583419], [81.31138362618395, 8.251901806286646]], [[81.31138362618395, 8.251901806286646], [81.31138362618395, 8.044153768312796], [81.24393444856891, 7.927328365754799], [81.24393444856891, 7.745668679387624], [81.24036843890839, 7.7394921694753265]], [[81.24036843890839, 7.7394921694753265], [81.15664402226191, 7.691153854986743], [81.1023462256577, 7.691153854986743]], [[81.1023462256577, 7.691153854986743], [81.10232264823829, 7.691153854986743]], [[81.10232264823829, 7.691153854986743], [81.07381253140545, 7.691153854986743], [81.03154323515687, 7.715558044554317]], [[81.03154323515687, 7.715597216608198], [81.03154323515687, 7.715558044554317]], [[81.03154323515687, 7.715558044554317], [81.01777009368261, 7.723509971492067], [80.99693158345683, 7.723509971492067]], [[80.99695516087624, 7.723509971492067], [80.99693158345683, 7.723509971492067]], [[80.99693158345683, 7.723509971492067], [80.9936915849291, 7.723509971492067], [80.98846728988714, 7.720493723343266]], [[80.98846728988714, 7.720493723343266], [80.84737989669044, 7.801950567784641], [80.77317217887098, 7.801950567784641], [80.75564027317196, 7.832316719208844], [80.75564027317196, 8.011463739567903]], [[80.75564027317196, 8.011463739567903], [80.75564027317196, 8.05002751382261], [80.90758467411992, 8.313202936190082], [80.91594225836033, 8.327678696723007], [80.94121814138109, 8.342271734589048]], [[80.80864231201508, 6.791685153781824], [80.92481123171572, 6.992895624963723], [80.92481123171572, 7.00521624138371], [80.94774908655883, 7.044945771388612], [80.94774908655883, 7.200210503701957]], [[80.94774908655883, 7.200210503701957], [80.97387286726975, 7.245458219179055], [80.97387286726975, 7.488399304101076]], [[80.97387286726975, 7.488399304101076], [80.97950787050975, 7.498159416013575], [80.97950787050975, 7.621623459348787]], [[80.97950787050975, 7.621623459348787], [81.18862555192256, 7.500889309692795], [81.19834238895065, 7.484059254271264], [81.27080688737212, 7.358547061260287], [81.27080688737212, 7.277967030654825]], [[81.60850626564162, 6.580116890773037], [81.39035670401458, 6.454168182644067], [81.35367791349128, 6.390638653897533], [81.0605217861254, 6.390638653897533], [81.04372344492896, 6.400337180709238], [80.9751520930896, 6.360747492266094], [80.9321172574872, 6.286208970507358]], [[80.92690664779667, 6.68885851234541], [81.03104139773635, 6.68885851234541], [81.06289181355622, 6.670469666198008], [81.1802486275128, 6.873737630585206], [81.1802486275128, 6.9263017757157455], [81.12332912255235, 7.0248892502489095], [81.12332912255235, 7.167198233552302], [81.14551883237989, 7.205631938378819], [81.27080688737212, 7.277967030654825]], [[81.27080688737212, 7.277967030654825], [81.32693194400831, 7.3751784803263964], [81.46963979705278, 7.457570897697092], [81.46963979705278, 7.207915831274567], [81.5075399136814, 7.142270903661011], [81.5075399136814, 7.013837424481595], [81.62289792160068, 6.814031493705463], [81.60850626564162, 6.789104414379321], [81.60850626564162, 6.580116890773037]], [[80.49510978864511, 6.8319931972248975], [80.5649253678422, 6.791685153781824], [80.80864231201508, 6.791685153781824]], [[80.80864231201508, 6.791685153781824], [80.83856062779405, 6.739865110775753], [80.92690664779667, 6.68885851234541]], [[80.92690664779667, 6.68885851234541], [80.88365980710208, 6.613952786995538], [80.88365980710208, 6.353371390269904], [80.89818162098577, 6.3449872171150306], [80.9321172574872, 6.286208970507358]], [[80.9321172574872, 6.286208970507358], [80.70425489171507, 6.286208970507358], [80.67073798586145, 6.305559965124345]], [[80.67073798586145, 6.305559965124345], [80.67071440844204, 6.305559965124345]], [[80.67071440844204, 6.305559965124345], [80.56229332432449, 6.368156907225444], [80.49576995638871, 6.368156907225444]], [[80.49576995638871, 6.368156907225444], [80.395354934803, 6.426131546968641], [80.38092434642218, 6.426131546968641]], [[80.38092434642218, 6.426131546968641], [80.21297749037316, 6.717024034616994], [80.20402296855747, 6.722193930197749]], [[80.20402296855747, 6.722193930197749], [80.20404654597688, 6.722193930197749]], [[80.20404654597688, 6.722193930197749], [80.20404654597688, 6.7702390599539655], [80.17771056849122, 6.815854311026116]], [[80.17771056849122, 6.815854311026116], [80.21107261696231, 6.87363907402262], [80.21107261696231, 6.916839865930143]], [[80.4211710013622, 7.3562327943081405], [80.4211710013622, 7.154462537524805], [80.44521187842165, 7.112822516999323], [80.46712339180047, 7.074870662556473], [80.46712339180047, 7.022251862922672]], [[80.46712339180047, 7.022251862922672], [80.49510978864511, 6.973778001666972], [80.49510978864511, 6.831954025171017]], [[80.49510978864511, 6.831954025171017], [80.49510978864511, 6.8319931972248975]], [[80.49510978864511, 6.8319931972248975], [80.35887912886861, 6.8319931972248975], [80.21354873951955, 6.9158997366370105], [80.2127009686637, 6.9158997366370105], [80.21107261696231, 6.916839865930143]], [[80.21107261696231, 6.916839865930143], [80.17929025559198, 6.971888530608074], [80.17929025559198, 6.977556549444977]], [[80.17929025559198, 6.977556549444977], [80.17929025559198, 7.104938969493046], [80.15703317166498, 7.143489369682937]], [[80.15700959424557, 7.143489369682937], [80.15703317166498, 7.143489369682937]], [[80.15703317166498, 7.143489369682937], [80.15703317166498, 7.190679440590055], [80.19603022337606, 7.258224315499033]], [[80.19603022337606, 7.258224315499033], [80.36578588824597, 7.3562327943081405], [80.4211710013622, 7.3562327943081405]], [[80.16118279748187, 7.198526105385094]]], "bbox": [79.52131521200005, 5.918696761000149, 81.8790335760001, 9.83586297700009]}