{"type": "Topology", "objects": {"data": {"geometries": [{"properties": {"adm1_name": "Central", "adm1_name1": "\u0db8\u0db0\u0dca\u200d\u0dba\u0db8 \u0db4\u0dc5\u0dcf\u0dad", "adm1_name2": "\u0bae\u0ba4\u0bcd\u0ba4\u0bbf\u0baf \u0bae\u0bbe\u0b95\u0bbe\u0ba3\u0bae\u0bcd", "adm1_name3": null, "adm1_pcode": "LK2", "adm0_name": "Sri Lanka", "adm0_name1": "\u0dc1\u0dca\u200d\u0dbb\u0dd3 \u0dbd\u0d82\u0d9a\u0dcf", "adm0_name2": "\u0b87\u0bb2\u0b99\u0bcd\u0b95\u0bc8", "adm0_name3": null, "adm0_pcode": "LK", "valid_on": "2022-08-16", "valid_to": null, "area_sqkm": 5731.24869051, "version": "v03", "lang": "en", "lang1": "si", "lang2": "ta", "lang3": null, "center_lat": 7.38167488, "center_lon": 80.72310875}, "type": "Polygon", "arcs": [[-2, -420, -409, -37, -34, -33, 32, -32]], "id": "feature_0"}, {"properties": {"adm1_name": "Eastern", "adm1_name1": "\u0db1\u0dd0\u0d9c\u0dd9\u0db1\u0dc4\u0dd2\u0dbb \u0db4\u0dc5\u0dcf\u0dad", "adm1_name2": "\u0b95\u0bbf\u0bb4\u0b95\u0bcd\u0b95\u0bc1 \u0bae\u0bbe\u0b95\u0bbe\u0ba3\u0bae\u0bcd", "adm1_name3": null, "adm1_pcode": "LK5", "adm0_name": "Sri Lanka", "adm0_name1": "\u0dc1\u0dca\u200d\u0dbb\u0dd3 \u0dbd\u0d82\u0d9a\u0dcf", "adm0_name2": "\u0b87\u0bb2\u0b99\u0bcd\u0b95\u0bc8", "adm0_name3": null, "adm0_pcode": "LK", "valid_on": "2022-08-16", "valid_to": null, "area_sqkm": 9647.26506978, "version": "v03", "lang": "en", "lang1": "si", "lang2": "ta", "lang3": null, "center_lat": 7.74955548, "center_lon": 81.41236563}, "type": "Polygon", "arcs": [[0, -414, -421, 1, -31, -30, 29, -29, -28, 27, -27, -26, -25, -24, 23, -35, -57], [2], [3]], "id": "feature_1"}, {"properties": {"adm1_name": "North Central", "adm1_name1": "\u0d8b\u0dad\u0dd4\u0dbb\u0dd4 \u0db8\u0dd0\u0daf \u0db4\u0dc5\u0dcf\u0dad", "adm1_name2": "\u0bb5\u0b9f \u0bae\u0ba4\u0bcd\u0ba4\u0bbf\u0baf \u0bae\u0bbe\u0b95\u0bbe\u0ba3\u0bae\u0bcd", "adm1_name3": null, "adm1_pcode": "LK7", "adm0_name": "Sri Lanka", "adm0_name1": "\u0dc1\u0dca\u200d\u0dbb\u0dd3 \u0dbd\u0d82\u0d9a\u0dcf", "adm0_name2": "\u0b87\u0bb2\u0b99\u0bcd\u0b95\u0bc8", "adm0_name3": null, "adm0_pcode": "LK", "valid_on": "2022-08-16", "valid_to": null, "area_sqkm": 10688.00362832, "version": "v03", "lang": "en", "lang1": "si", "lang2": "ta", "lang3": null, "center_lat": 8.28139199, "center_lon": 80.48495204}, "type": "Polygon", "arcs": [[-24, 23, 24, 25, 26, -28, 27, 28, -30, 29, 30, 31, -33, 32, 33, -36, -58, 34]], "id": "feature_2"}, {"properties": {"adm1_name": "North Western", "adm1_name1": "\u0dc0\u0dba\u0db9 \u0db4\u0dc5\u0dcf\u0dad", "adm1_name2": "\u0bb5\u0b9f \u0bae\u0bc7\u0bb2\u0bcd \u0bae\u0bbe\u0b95\u0bbe\u0ba3\u0bae\u0bcd", "adm1_name3": null, "adm1_pcode": "LK6", "adm0_name": "Sri Lanka", "adm0_name1": "\u0dc1\u0dca\u200d\u0dbb\u0dd3 \u0dbd\u0d82\u0d9a\u0dcf", "adm0_name2": "\u0b87\u0bb2\u0b99\u0bcd\u0b95\u0bc8", "adm0_name3": null, "adm0_pcode": "LK", "valid_on": "2022-08-16", "valid_to": null, "area_sqkm": 8065.64498669, "version": "v03", "lang": "en", "lang1": "si", "lang2": "ta", "lang3": null, "center_lat": 7.91254086, "center_lon": 80.10712177}, "type": "Polygon", "arcs": [[35, 36, -410, -429, 37, -59]], "id": "feature_3"}, {"properties": {"adm1_name": "Northern", "adm1_name1": "\u0d8b\u0dad\u0dd4\u0dbb\u0dd4 \u0db4\u0dc5\u0dcf\u0dad", "adm1_name2": "\u0bb5\u0b9f \u0bae\u0bbe\u0b95\u0bbe\u0ba3\u0bae\u0bcd", "adm1_name3": null, "adm1_pcode": "LK4", "adm0_name": "Sri Lanka", "adm0_name1": "\u0dc1\u0dca\u200d\u0dbb\u0dd3 \u0dbd\u0d82\u0d9a\u0dcf", "adm0_name2": "\u0b87\u0bb2\u0b99\u0bcd\u0b95\u0bc8", "adm0_name3": null, "adm0_pcode": "LK", "valid_on": "2022-08-16", "valid_to": null, "area_sqkm": 9037.41551826, "version": "v03", "lang": "en", "lang1": "si", "lang2": "ta", "lang3": null, "center_lat": 9.18025591, "center_lon": 80.48138481}, "type": "Polygon", "arcs": [[56, 57, 58, 59, -83, 60]], "id": "feature_4"}, {"properties": {"adm1_name": "Sabaragamuwa", "adm1_name1": "\u0dc3\u0db6\u0dbb\u0d9c\u0db8\u0dd4\u0dc0 \u0db4\u0dc5\u0dcf\u0dad", "adm1_name2": "\u0b9a\u0baa\u0bb0\u0b95\u0bae\u0bc1\u0bb5 \u0bae\u0bbe\u0b95\u0bbe\u0ba3\u0bae\u0bcd", "adm1_name3": null, "adm1_pcode": "LK9", "adm0_name": "Sri Lanka", "adm0_name1": "\u0dc1\u0dca\u200d\u0dbb\u0dd3 \u0dbd\u0d82\u0d9a\u0dcf", "adm0_name2": "\u0b87\u0bb2\u0b99\u0bcd\u0b95\u0bc8", "adm0_name3": null, "adm0_pcode": "LK", "valid_on": "2022-08-16", "valid_to": null, "area_sqkm": 4944.80784275, "version": "v03", "lang": "en", "lang1": "si", "lang2": "ta", "lang3": null, "center_lat": 6.81269549, "center_lon": 80.33507745}, "type": "Polygon", "arcs": [[408, -419, -413, -426, -425, -424, -423, 422, -422, 409]], "id": "feature_5"}, {"properties": {"adm1_name": "Southern", "adm1_name1": "\u0daf\u0d9a\u0dd4\u0dab\u0dd4 \u0db4\u0dc5\u0dcf\u0dad", "adm1_name2": "\u0ba4\u0bc6\u0ba9\u0bcd \u0bae\u0bbe\u0b95\u0bbe\u0ba3\u0bae\u0bcd", "adm1_name3": null, "adm1_pcode": "LK3", "adm0_name": "Sri Lanka", "adm0_name1": "\u0dc1\u0dca\u200d\u0dbb\u0dd3 \u0dbd\u0d82\u0d9a\u0dcf", "adm0_name2": "\u0b87\u0bb2\u0b99\u0bcd\u0b95\u0bc8", "adm0_name3": null, "adm0_pcode": "LK", "valid_on": "2022-08-16", "valid_to": null, "area_sqkm": 5544.92273301, "version": "v03", "lang": "en", "lang1": "si", "lang2": "ta", "lang3": null, "center_lat": 6.24940775, "center_lon": 80.46091981}, "type": "Polygon", "arcs": [[411, -427, 412, -418, 413]], "id": "feature_6"}, {"properties": {"adm1_name": "Uva", "adm1_name1": "\u0d8c\u0dc0 \u0db4\u0dc5\u0dcf\u0dad", "adm1_name2": "\u0b8a\u0bb5\u0bbe \u0bae\u0bbe\u0b95\u0bbe\u0ba3\u0bae\u0bcd", "adm1_name3": null, "adm1_pcode": "LK8", "adm0_name": "Sri Lanka", "adm0_name1": "\u0dc1\u0dca\u200d\u0dbb\u0dd3 \u0dbd\u0d82\u0d9a\u0dcf", "adm0_name2": "\u0b87\u0bb2\u0b99\u0bcd\u0b95\u0bc8", "adm0_name3": null, "adm0_pcode": "LK", "valid_on": "2022-08-16", "valid_to": null, "area_sqkm": 8629.94481929, "version": "v03", "lang": "en", "lang1": "si", "lang2": "ta", "lang3": null, "center_lat": 6.95387003, "center_lon": 81.23521898}, "type": "Polygon", "arcs": [[417, 418, 419, 420]], "id": "feature_7"}, {"properties": {"adm1_name": "Western", "adm1_name1": "\u0db6\u0dc3\u0dca\u0db1\u0dcf\u0dc4\u0dd2\u0dbb \u0db4\u0dc5\u0dcf\u0dad", "adm1_name2": "\u0bae\u0bc7\u0bb2\u0bcd \u0bae\u0bbe\u0b95\u0bbe\u0ba3\u0bae\u0bcd", "adm1_name3": null, "adm1_pcode": "LK1", "adm0_name": "Sri Lanka", "adm0_name1": "\u0dc1\u0dca\u200d\u0dbb\u0dd3 \u0dbd\u0d82\u0d9a\u0dcf", "adm0_name2": "\u0b87\u0bb2\u0b99\u0bcd\u0b95\u0bc8", "adm0_name3": null, "adm0_pcode": "LK", "valid_on": "2022-08-16", "valid_to": null, "area_sqkm": 3751.55742292, "version": "v03", "lang": "en", "lang1": "si", "lang2": "ta", "lang3": null, "center_lat": 6.82758732, "center_lon": 80.03300355}, "type": "Polygon", "arcs": [[421, -423, 422, 423, 424, 425, 426, 427, 428], [429]], "id": "feature_8"}], "type": "GeometryCollection"}}, "arcs": [[[80.96722403499494, 8.986691192977784], [81.01785070540078, 8.915110667874076], [81.0799382472625, 8.867694331075718], [81.12068491829953, 8.791048255445695], [81.17892475619952, 8.723769908658937], [81.22324849545858, 8.641332177012313], [81.24293746164696, 8.575271125337434], [81.22285706448864, 8.545614581976377], [81.21908449465865, 8.578678354414109], [81.19939380938578, 8.563595922024327], [81.19844778718995, 8.545330084139476], [81.1993539384493, 8.506450293400443], [81.15610274192206, 8.545061042745152], [81.13007836227882, 8.49300579792136], [81.19182253233457, 8.494793146750503], [81.26873744125218, 8.463684820408123], [81.31327304172466, 8.517366029178064], [81.36163063804821, 8.460867113829702], [81.3857813792594, 8.366461796840365], [81.40147602001325, 8.277312065025246], [81.4268505413092, 8.185904640951414], [81.45751595858547, 8.103868341280666], [81.49186483238945, 8.012064978674657], [81.54190615377684, 7.976593689739006], [81.51275066505725, 7.911822036535042], [81.51839336864057, 7.877870869061083], [81.54704638555683, 7.826845849628927], [81.52742842350962, 7.818641340926467], [81.52757736149788, 7.862501723219248], [81.51857028306864, 7.9129459312596495], [81.55614566022962, 7.942625088789401], [81.56605272624778, 7.879798821450076], [81.62402233577782, 7.818957658623188], [81.68344105551273, 7.759891254751795], [81.68624324836594, 7.725307252853755], [81.6670986819053, 7.71317505571204], [81.60990313668665, 7.768782342729807], [81.57919287560202, 7.728372836805828], [81.61358623535575, 7.716121233656367], [81.64462262026166, 7.708780522350178], [81.67237893380126, 7.669390818143262], [81.69279554004737, 7.638188650543135], [81.73035795335517, 7.626997970515421], [81.75290749382494, 7.587614855228019], [81.7596335796223, 7.558749036159751], [81.7494585218669, 7.5325074418714015], [81.74915027031643, 7.507836489778969], [81.75304656785116, 7.45939907786874], [81.79303200226941, 7.439744239418436], [81.80158166692962, 7.497278255189938], [81.78215519020326, 7.517340956377787], [81.76555261466238, 7.593289560255486], [81.72244609280662, 7.65556280784137], [81.70563283863616, 7.734880163776356], [81.72422035859934, 7.71227265898691], [81.77445663926912, 7.627337182534042], [81.80414903420296, 7.533965234014149], [81.82296209838437, 7.43752136491577], [81.86056501964183, 7.347135237674907], [81.86463226032865, 7.258905151982624], [81.86127143810359, 7.160047692527701], [81.86725036618431, 7.063620173302884], [81.86738883014732, 6.97205432915903], [81.84500874745461, 6.883066589111349], [81.82452203382624, 6.8043787217804255], [81.80347626951689, 6.724449780192351], [81.77639074893393, 6.643945787010404], [81.7385198582663, 6.56709594339267], [81.70703630137355, 6.510704011296723]], [[80.97950787050975, 7.621623459348787], [80.98975221650632, 7.712975394653215], [80.98846728988714, 7.720493723343266]], [[81.37883862312796, 8.182410582702571], [81.405404754531, 8.119058212485761], [81.44376262499377, 8.070617188039003], [81.43871184171259, 8.137289819511018], [81.43827005283023, 8.102812356651965], [81.40400791349978, 8.158259041966103], [81.37883862312796, 8.182410582702571]], [[81.81549243067884, 7.468891621268568]], [[81.77126119185782, 7.5363850701047355]], [[81.73202836595259, 7.634080172482798]], [[81.72809093691042, 7.636469667769511]], [[81.69583702715181, 7.647241982586658]], [[81.70491433362626, 7.6493181014423275]], [[81.66466767868624, 7.703297191689709]], [[81.69802972715732, 7.703845600444037]], [[81.6973224045749, 7.714774603476707]], [[81.51822832670467, 7.893046620687036]], [[81.51653075250685, 7.897394718667776]], [[81.51023558152326, 7.901899504864038]], [[81.51690799121748, 7.903153010588215]], [[81.51858198799589, 7.906090914629255]], [[81.51344211056359, 7.911810034495814]], [[81.51542261379439, 7.914552078267452]], [[81.52534870736777, 7.930925996789517]], [[81.52457065252709, 7.932140330459813]], [[81.4637880652773, 8.111979229825364]], [[81.44181391038327, 8.109707250700293]], [[81.05526211908754, 8.274151532890793], [81.05528569650697, 8.274151532890793]], [[81.05528569650697, 8.274151532890793], [81.11883573876652, 8.26043490809403], [81.19569825118211, 8.232160513636435], [81.19759708355869, 8.160082096119563], [81.23788959497531, 8.180053622850675], [81.26424144227808, 8.23369932862195], [81.3144293755833, 8.244531274505855], [81.31103792460432, 8.144653933393137], [81.3071396906894, 8.044782089506226], [81.33897419021201, 7.9564420793832085], [81.27589861581089, 7.939283331034502], [81.22875151478407, 7.877780723719908], [81.22959934782867, 7.793401791012216], [81.24036526038927, 7.711635558303231], [81.21415772937391, 7.64218585831197], [81.17109798066949, 7.6488497983166415], [81.11384046341601, 7.663879621544449], [81.1023462256577, 7.691153854986743]], [[81.1023462256577, 7.691153854986743], [81.10232264823829, 7.691153854986743]], [[81.10232264823829, 7.691153854986743], [81.07114393196365, 7.716678470228568], [81.03614083194263, 7.710965571040292], [81.03154323515687, 7.715558044554317]], [[81.03154323515687, 7.715597216608198], [81.03154323515687, 7.715558044554317]], [[81.03154323515687, 7.715558044554317], [80.99693158345683, 7.723509971492067]], [[80.99695516087624, 7.723509971492067], [80.99693158345683, 7.723509971492067]], [[80.99693158345683, 7.723509971492067], [80.98846728988714, 7.720493723343266]], [[80.98846728988714, 7.720493723343266], [80.9080452849652, 7.714931053818121], [80.8547561012198, 7.698644625114342], [80.78872239987085, 7.678290678497244], [80.7636729299814, 7.762743718462856], [80.79754716099512, 7.818531643079884], [80.81765605466524, 7.912043205965321], [80.82525659778187, 7.970528943262741], [80.77836014341528, 7.986270753607072], [80.7033577282254, 7.986962255533191], [80.70141220851932, 7.983847441582124]], [[80.70141220851932, 7.983886613636004], [80.70141220851932, 7.983847441582124]], [[80.70141220851932, 7.983847441582124], [80.65431431763787, 7.922638988829901], [80.6147828248436, 7.862269481086325], [80.54656898240064, 7.839108337204804], [80.50128707253164, 7.8169353199971505]], [[80.75509799252544, 8.905840073768353], [80.83860975174132, 8.897821683241734], [80.91039058487138, 8.834688464763264], [80.88058011447454, 8.756165407706073], [80.91269552455198, 8.681978048478298], [80.90051837426618, 8.619103079852827], [80.94817348010828, 8.543390365553867], [80.98846103645202, 8.485913716535128], [80.94697867698343, 8.417642467256425], [80.94454394931326, 8.335985156706506], [80.99374564871951, 8.27284212040557], [81.05528569650697, 8.274151532890793]], [[80.0329923681269, 8.52641955988146], [80.01253515068339, 8.439772210486742], [79.95504497395763, 8.384540226143189], [79.98254208686626, 8.294815699193325], [80.0262834987466, 8.22556903261855], [80.09901117556862, 8.199293238139571], [80.18123471009454, 8.163010841111596], [80.25989938697893, 8.125593663435021], [80.32398487853689, 8.101752189039248], [80.37862381272204, 8.056097411886372], [80.41810183407271, 8.002862423620543], [80.44602820534432, 7.9544323639464665], [80.4789159527559, 7.875703804818303], [80.50128707253164, 7.8169353199971505]], [[80.50128707253164, 7.8169353199971505], [80.53409394738836, 7.743591034022627], [80.55220809362966, 7.6616428660178775], [80.569204172068, 7.592703535118545], [80.56556414835444, 7.522739096655905], [80.56419490382336, 7.457560533004633], [80.53810659907059, 7.416866862273938], [80.48989357079905, 7.3978055965460525], [80.45633146284634, 7.370134413880122], [80.4211710013622, 7.3562327943081405]], [[79.84100144183711, 7.272874663650355], [79.82435482832486, 7.370849526070026], [79.80222570682213, 7.46724897890291], [79.78790509331634, 7.564462881095719], [79.79961844094105, 7.655663262586033], [79.78838157679408, 7.752629381773996], [79.7649651638515, 7.848739664768893], [79.74253129654875, 7.941225100574834], [79.71676885058244, 8.025969388732683], [79.70471560901314, 8.12114061113347], [79.69753879813585, 8.216096917760595], [79.74573054215239, 8.283591997876002], [79.7742533436628, 8.37462614105957], [79.771137598848, 8.329181707195675], [79.75387866321114, 8.287018135460604], [79.7536083034769, 8.253286710035205], [79.74488506554437, 8.237358919199579], [79.76721577830466, 8.233760625282518], [79.74603234962669, 8.190166180108408], [79.73262318747054, 8.117973268274053], [79.74161766982999, 8.052833311083747], [79.77708197008428, 7.9811840704935175], [79.8315672824402, 8.003770706661829], [79.79047212536834, 8.078450788170132], [79.81995448933247, 8.112987581050076], [79.81907742518106, 8.171427698035957], [79.79669490179533, 8.223906176758955], [79.81296789015363, 8.250152949866361], [79.83719957061723, 8.33160908512207], [79.84279913365518, 8.416924594108282], [79.86579577341998, 8.498278883587696], [79.91810498393575, 8.55267675527911], [79.9205280775212, 8.566962635647815]], [[79.80561173529641, 8.175085408626911]], [[79.74867226741112, 8.172500053070795]], [[79.74897877386351, 8.17868923758392]], [[79.75673574485079, 8.177553248021386]], [[79.77913429329426, 8.189304864185546]], [[79.77076430940222, 8.214100774291927]], [[79.78333107395, 8.219036453080875]], [[79.7795351094243, 8.237525662512489]], [[79.78132699329979, 8.240776942984574]], [[79.77599849651217, 8.244419943995464]], [[79.78045462878146, 8.271409489119154]], [[79.78693841912036, 8.274543253429599]], [[79.76145122873362, 8.278538802925413]], [[79.77408872553963, 8.272702166897213]], [[79.79278561913509, 8.282338492151824]], [[79.79653442882194, 8.305410831887462]], [[79.80268813528905, 8.338981282063083]], [[79.78802298041342, 8.547376608707546], [79.79116059037648, 8.467796469503718], [79.80569493281162, 8.411772117845306], [79.77643049517047, 8.5011734371288], [79.78802298041342, 8.547376608707546]], [[80.96722403499494, 8.986691192977784], [80.88768143018486, 8.973176084217679], [80.80665650295504, 8.951484331762995], [80.75509799252544, 8.905840073768353]], [[80.75509799252544, 8.905840073768353], [80.66671654772561, 8.871600022271359], [80.59632477317665, 8.844271946712583], [80.64093665104075, 8.784730858201298], [80.5751123492075, 8.718818907922303], [80.51274544603174, 8.660197660000431], [80.44393959465775, 8.688679556721535], [80.3838008041345, 8.623112320979699], [80.34271381309712, 8.558652002589435], [80.28542297678727, 8.572930508498155], [80.23581256103853, 8.630231382847338], [80.19633280450557, 8.670583758713477], [80.10290437432174, 8.65273758145255], [80.04960634162028, 8.658428619235206], [80.05379912537187, 8.559685215804015], [80.0329923681269, 8.52641955988146]], [[80.0329923681269, 8.52641955988146], [79.95008516568288, 8.556628686321849], [79.9205280775212, 8.566962635647815]], [[79.9205280775212, 8.566962635647815], [79.94278516144819, 8.650119440503326], [79.95363640142394, 8.738095990152656], [79.92013883772177, 8.808647988391305], [79.91951909965093, 8.835317931895306], [79.9281671614114, 8.900525578997144], [79.91692886004431, 8.93564550559397], [79.9145629904094, 8.92460348757713]], [[79.91463372266765, 8.92460348757713], [79.92501621844639, 8.947389616210826], [79.96815035669698, 8.969426809078385], [80.02322832515863, 9.014418701136917], [80.06791887748264, 9.06435795352234], [80.07863310402338, 9.130319805106428], [80.10529345755374, 9.195535448478267], [80.11722004711473, 9.24392207486014], [80.10032624752009, 9.318244530452336], [80.054573258626, 9.365577376919786], [80.11213626981184, 9.417143763075337], [80.1668527812027, 9.460456957911232], [80.15105672764905, 9.53160551313459], [80.07245613583765, 9.588992199786302], [80.08082210840354, 9.596097359038282], [80.11343852316813, 9.57664325253988], [80.17211657523414, 9.543050806186917], [80.21086166141151, 9.531023991504435], [80.25661576148646, 9.512058390749763], [80.26335545720909, 9.498709109250298], [80.27177401109286, 9.475793457730184], [80.28994241508998, 9.457018547406665], [80.33507091312038, 9.455815710251109], [80.34687855278807, 9.468240396684402], [80.39274395962875, 9.484025674902039], [80.38190367032652, 9.516236164237984], [80.32626149093691, 9.572665946976754], [80.25253636538925, 9.616695335538479], [80.17349021041609, 9.65531814464356], [80.1728719726097, 9.63692547687848], [80.17837073623483, 9.611971120117436], [80.19483728349005, 9.587496357755288], [80.1539516001305, 9.614668840858121], [80.08259231931248, 9.654313182538633], [80.10246299521002, 9.628378552573311], [80.09239512136423, 9.621899202279376], [80.01922142625128, 9.64964316778102], [79.99812228098057, 9.63632053453263], [79.98846563108671, 9.598221822030416], [79.98098058089919, 9.621503048375446], [79.90916108891068, 9.619219341102141], [79.8614651516367, 9.585984445296138], [79.80178521272582, 9.584332000015516], [79.80946401979458, 9.596748042377003], [79.8262408228659, 9.61398670989313], [79.88389696446575, 9.629654476270439], [79.84907920496967, 9.688783781964105], [79.88905449792371, 9.69703532791321], [79.9231522047291, 9.680285322079094], [79.95488849096195, 9.639673052429712], [79.98807953487673, 9.628372180872427], [79.98366840671241, 9.6846761850157], [79.94898602275413, 9.692069381199643], [79.92628059357276, 9.7318091518242], [79.88348795162149, 9.707691346538635], [79.85657211736805, 9.753484147689319], [79.89486317414912, 9.741184122770829], [79.92301382703967, 9.775457950096204], [80.00589968039941, 9.813483913435753], [80.06451068069612, 9.813025669587736], [80.14362497415368, 9.825208178344583], [80.23007444176882, 9.830490922381571], [80.28742264624438, 9.760785865005637], [80.34624690605116, 9.680952687725512], [80.42142228248997, 9.61627275741189], [80.4996126373848, 9.554633393353116], [80.57676019285216, 9.491621493336789], [80.65591318541117, 9.431697807627966], [80.72723386909708, 9.364051530271341], [80.80236334328347, 9.301568415338275], [80.84801108101546, 9.21583605636504], [80.88324296909357, 9.126475253336803], [80.93097133043582, 9.043618114165106], [80.96722403499494, 8.986691192977784]], [[79.92008010655232, 8.809359305060585]], [[79.9185475742904, 8.809986057922675]], [[79.92140044203951, 8.811513768024016]], [[79.91607194525191, 8.810142746138197]], [[79.91630771944605, 8.812571413478791]], [[79.91911343235634, 8.817742124591021]], [[79.91654349364019, 8.820797544793702]], [[79.9201979936494, 8.820131619877735]], [[79.91791098396621, 8.820836716847584]], [[79.91817033557977, 8.822051050517882]], [[79.91713292912554, 8.822834491595492]], [[79.91696788718964, 8.825028126612802]], [[79.9188776581622, 8.826712524929665]], [[79.91847684203215, 8.828318579138767]], [[79.92026872590763, 8.831687375772493]], [[79.91883050332336, 8.833254257927715]], [[79.9281907388308, 8.900081781847913]], [[79.9258565743088, 8.90348975053552]], [[79.92896879367147, 8.907602816192977]], [[79.9167321129955, 8.921313035051163]], [[79.91409144202112, 8.923585014176236]], [[79.91463372266765, 8.92460348757713], [79.9145629904094, 8.92460348757713]], [[79.9145629904094, 8.92460348757713], [79.91463372266765, 8.92460348757713]], [[79.90239704199168, 8.941760847176806]], [[79.94608600016618, 8.946187289265307]], [[79.94771284210576, 8.946970730342917]], [[79.91748659041676, 8.947597483205005]], [[79.92151832913659, 8.948185064013213]], [[79.9167321129955, 8.948341752228735]], [[79.92196630010545, 8.948106719905454]], [[79.9212118226842, 8.947871687582168]], [[79.94917464210944, 8.94865512865978]], [[79.9218719904278, 8.948968505090825]], [[79.95240474856918, 8.950339526976643]], [[79.9193963613893, 8.95073124751545]], [[79.95301776147394, 8.95159303270082]], [[79.923192325915, 8.953120742802161]], [[79.95417305502525, 8.953159914856041]], [[79.9203630355853, 8.953473291287086]], [[79.90435396780305, 8.937373577142186], [79.89819071595278, 8.943670119454607], [79.90435396780305, 8.937373577142186]], [[79.89117419035051, 8.957155464351857]], [[79.91765163235266, 8.95660705559753]], [[79.91651991622078, 8.95817393775275]], [[79.91701504202848, 8.95880069061484]], [[79.91996221945524, 8.9588790347226]], [[79.91760447751383, 8.961229357955432]], [[79.90341087102648, 8.961581906440358]], [[79.91626056460723, 8.972785113850192]], [[79.69508079308267, 9.079450616566897]], [[79.69595315760098, 9.08622738188823]], [[79.6956230737292, 9.08763757582793]], [[79.69567022856802, 9.087911780205093]], [[79.69677836728049, 9.09057547986897]], [[79.69757999954057, 9.094061792664338]], [[79.69923041889956, 9.094649373472546]], [[79.69809870276768, 9.094610201418666]], [[79.69734422534643, 9.097704793675227]], [[79.69788650599295, 9.098018170106272]], [[79.69880602535011, 9.098174858321794]], [[79.73028188026805, 9.108359592330734], [79.82494031144883, 9.08675091137552], [79.88337827842128, 9.052953384550028], [79.89898111052243, 9.024976565663964], [79.91677852286914, 8.987984196466861], [79.88657833266026, 8.966401032191769], [79.84240341112948, 9.012058344509537], [79.75794596190043, 9.063872226752704], [79.69362937549774, 9.079273563509979], [79.70319209590343, 9.101824573684], [79.73028188026805, 9.108359592330734]], [[80.10792140702522, 9.197045122316272]], [[80.00418076160275, 9.277857069471823]], [[80.00436938095807, 9.277935413579584]], [[80.00354417127858, 9.278679682603315]], [[80.00401571966685, 9.278836370818837]], [[79.99871080029867, 9.2805207691357]], [[80.00441653579689, 9.278875542872717]], [[79.99816851965214, 9.282440199775847]], [[79.99840429384628, 9.28204847923704]], [[79.99826282932979, 9.283419501122859]], [[80.002601074502, 9.28643574927166]], [[79.98803022930403, 9.306844389343421], [79.99770996738272, 9.289695053810476], [79.99764768484857, 9.28006487028502], [79.98803022930403, 9.306844389343421]], [[80.0884700360085, 9.313738670826396]], [[80.08502773277402, 9.317734220322212]], [[80.08429683277218, 9.318870209884746]], [[80.07415854242409, 9.322356522680115]], [[80.05652263270227, 9.34597727117008]], [[79.52829412814665, 9.383308238518232]], [[80.12543942964996, 9.428473616642492]], [[80.15644373617963, 9.448803912606492]], [[80.15776407166682, 9.44872556849873]], [[80.15693886198731, 9.453582903179917]], [[80.15698601682615, 9.45440551631141]], [[80.33061013339228, 9.45518895738902]], [[80.33598578501872, 9.458596926076627]], [[80.33584432050223, 9.458831958399909]], [[80.28956184619217, 9.459106162777074]], [[80.28189918488255, 9.459223678938715]], [[80.29312203652371, 9.460359668501251]], [[80.28029592036239, 9.460516356716774]], [[80.29081144942111, 9.459693743585282]], [[80.29517327201275, 9.461534830117667]], [[80.30288308816118, 9.461887378602592]], [[80.29998306557324, 9.4624749594108]], [[80.28807646876908, 9.459850431800804]], [[80.29762532363182, 9.462318271195278]], [[80.28894883328739, 9.459967947962445]], [[80.33516057533922, 9.462749163787963]], [[80.33565570114692, 9.462670819680202]], [[80.33461829469269, 9.463023368165128]], [[80.3349719559839, 9.463101712272888]], [[80.29899281395784, 9.462670819680202]], [[80.33584432050223, 9.463062540219008]], [[80.33643375598758, 9.462905852003486]], [[80.3354435043722, 9.463297572542292]], [[80.28765207521961, 9.462788335841845]], [[80.30481643655315, 9.463180056380649]], [[80.33575001082457, 9.463571776919455]], [[80.28755776554196, 9.463767637188857]], [[80.30019526234797, 9.463650121027216]], [[80.29583343975634, 9.462553303518561]], [[80.28666182360422, 9.464041841566022]], [[80.30946118817775, 9.46470776648199]], [[80.3002424171868, 9.46466859442811]], [[80.32884182693621, 9.46466859442811]], [[80.32752149144902, 9.46533451934408]], [[80.3494249140848, 9.464981970859155]], [[80.29220251716656, 9.464981970859155]], [[80.32558814305706, 9.465569551667363]], [[80.3000773752509, 9.465099487020796]], [[80.27909347197226, 9.464081013619902]], [[80.27850403648691, 9.46321922843453]], [[80.3183498752969, 9.464864454697512]], [[80.28531791069761, 9.465569551667363]], [[80.30561806881323, 9.465060314966916]], [[80.27638206873964, 9.46541286345184]], [[80.30844735914293, 9.465843756044526]], [[80.35187696570388, 9.466744713283779]], [[80.26916737839889, 9.466548853014377]], [[80.35081598183024, 9.466509680960495]], [[80.35053305279727, 9.466588025068257]], [[80.29856842040839, 9.466979745607063]], [[80.35013223666724, 9.466783885337659]], [[80.35067451731376, 9.467097261768703]], [[80.27621702680374, 9.465961272206169]], [[80.35185338828447, 9.467214777930344]], [[80.29670580427467, 9.467136433822585]], [[80.35154688183208, 9.467175605876465]], [[80.29029274619401, 9.467332294091987]], [[80.28868948167384, 9.467919874900195]], [[80.28675613328187, 9.468037391061836]], [[80.3105457494708, 9.467449810253628]], [[80.29713019782412, 9.46752815436139]], [[80.31309211076753, 9.468076563115716]], [[80.29630498814463, 9.46756732641527]], [[80.27284545582751, 9.468115735169597]], [[80.27508531067186, 9.468154907223479]], [[80.2952675816904, 9.46827242338512]], [[80.30017168492856, 9.469134208570491]], [[80.33850856889603, 9.468664143923924]], [[80.35984613346588, 9.469369240893775]], [[80.27310480744106, 9.467802358738552]], [[80.36109573669484, 9.469604273217058]], [[80.31804336884451, 9.470035165809744]], [[80.27558043647954, 9.469643445270938]], [[80.26487628806551, 9.467410638199748]], [[80.27133650098499, 9.469369240893775]], [[80.25360628158552, 9.47046605840243]], [[80.25990145256911, 9.471053639210638]], [[80.2738357074429, 9.47054440251019]], [[80.25801525901598, 9.471367015641682]], [[80.25874615901782, 9.471053639210638]], [[80.25942990418082, 9.471758736180487]], [[80.3676974141308, 9.472424661096456]], [[80.25700142998116, 9.471523703857205]], [[80.3686640883268, 9.473325618335709]], [[80.27697150422499, 9.473599822712872]], [[80.31101729785908, 9.47340396244347]], [[80.3680274980026, 9.473129758066307]], [[80.29286268491015, 9.472307144934815]], [[80.36965433994219, 9.474226575574962]], [[80.28449270101811, 9.47634186648451]], [[80.26973323646483, 9.47559759746078]], [[80.3741812044697, 9.477321167831523]], [[80.37639748189464, 9.476890275238837]], [[80.28178129778549, 9.477869576585851]], [[80.27840972680926, 9.477438683993165]], [[80.3774820431877, 9.47779123247809]], [[80.37750562060711, 9.478731361771224]], [[80.37986336254853, 9.479749835172118]], [[80.37856660448075, 9.479906523387639]], [[80.3755015399569, 9.48135588938122]], [[80.37774139480125, 9.481316717327338]], [[80.38375363675188, 9.48210015840495]], [[80.38535690127203, 9.481904298135547]], [[80.30410911397072, 9.480924996788534]], [[80.37851944964193, 9.482648567159277]], [[80.38705447546987, 9.483353664129126]], [[80.38825692385998, 9.48358869645241]], [[80.37988693996795, 9.483823728775693]], [[80.38167882384343, 9.484176277260618]], [[80.26574865258382, 9.483471180290769]], [[80.30382618493775, 9.48358869645241], [80.30792865591582, 9.476536364449242], [80.30382618493775, 9.48358869645241]], [[80.30781076881875, 9.476929447292719]], [[80.26671532677982, 9.484019589045095]], [[80.2670454106516, 9.485625643254199]], [[80.26306082677061, 9.486683288708972]], [[80.26100959128158, 9.487388385678823]], [[80.25723720417531, 9.490404633827623]], [[80.25615264288226, 9.49087469847419]], [[80.2545729557815, 9.49091387052807]], [[80.25749655578886, 9.491462279282398]], [[80.2578973719189, 9.490835526420309]], [[80.27725443325795, 9.49295081732986]], [[80.26077381708744, 9.49451769948508]], [[80.26148113966985, 9.494791903862243]], [[80.25558678481632, 9.494791903862243]], [[80.26185837838048, 9.495653689047616]], [[80.26355595257832, 9.496045409586422]], [[80.28402115262983, 9.494282667161798]], [[80.26091528160391, 9.496868022717912]], [[80.25334692997197, 9.496202097801943]], [[80.2627071654794, 9.498043184334328]], [[80.2643575848384, 9.498004012280449]], [[80.26124536547572, 9.49816070049597]], [[80.26230634934936, 9.498552421034775]], [[80.25697785256175, 9.498278216657612]], [[80.25761444288594, 9.498591593088657]], [[80.22604427829033, 9.535021603197556]], [[80.20671079437068, 9.536275108921734]], [[80.22486540731961, 9.536510141245017]], [[80.20279694274792, 9.537802819023074]], [[80.22085724601921, 9.539056324747252]], [[80.21840519440012, 9.53823371161576]], [[80.20100505887245, 9.5425818095965]], [[80.35847864313986, 9.543600282997394]], [[80.19470988788886, 9.544932132829333]], [[80.35253713344748, 9.549476091079475]], [[80.34970784311777, 9.54990698367216]], [[80.3479159592423, 9.551434693773501]], [[79.66061060589911, 9.556017824077525], [79.71593727762802, 9.529263311277118], [79.69748970044428, 9.480016172835878], [79.6506373574869, 9.540549592999094], [79.66061060589911, 9.556017824077525]], [[79.8006133223806, 9.57885513148988]], [[80.30528798494143, 9.58477011162584]], [[80.30394407203482, 9.585044316003003]], [[80.29974729137909, 9.585749412972854]], [[80.30160990751281, 9.58551438064957]], [[80.30102047202746, 9.586728714319868]], [[80.19935463951346, 9.58990165068419]], [[80.19694974273321, 9.594406436880453]], [[80.1894521233595, 9.59503318974254]], [[79.80198081270662, 9.59428892071881]], [[80.19746844596033, 9.596991792436569]], [[80.19555867498777, 9.598872051022834]], [[80.19633672982845, 9.598911223076716]], [[80.09070989085285, 9.599185427453879]], [[80.19291800401338, 9.599577147992683]], [[80.19294158143279, 9.600634793447458]], [[80.19864731693103, 9.60161409479447]], [[80.18150653301691, 9.604081934188946]], [[80.18079921043449, 9.604630342943274]], [[80.18072847817625, 9.604826203212676]], [[80.17789918784653, 9.604787031158795]], [[80.18061059107917, 9.604982891428198]], [[80.17910163623667, 9.604747859104915]], [[80.17863008784838, 9.605687988398047]], [[80.18011546527147, 9.605335439913123]], [[80.18117644914511, 9.605492128128645]], [[80.18030408462678, 9.60584467661357]], [[80.17726259752236, 9.60596219277521]], [[80.17794634268537, 9.606197225098494]], [[80.17877155236486, 9.60662811769118]], [[80.17771056849122, 9.60662811769118]], [[79.96999350345217, 9.607999139577]], [[79.96820161957669, 9.608625892439088]], [[80.06783979402108, 9.609879398163265]], [[80.07694067791496, 9.612151377288336]], [[79.98246595832228, 9.613365710958632]], [[80.19079603626611, 9.613796603551318]], [[79.98225376154755, 9.613404883012514]], [[80.1813179136616, 9.615637690083705]], [[79.98206514219224, 9.616186098838032]], [[79.86016988382086, 9.616538647322956]], [[79.98211229703107, 9.616812851700121]], [[79.98246595832228, 9.617047884023403]], [[79.858755238656, 9.616734507592358]], [[79.85469992251676, 9.616577819376838]], [[80.18110571688688, 9.617165400185044]], [[80.2017359588743, 9.617282916346687]], [[80.19079603626611, 9.61461921668281]], [[80.19305946852987, 9.617870497154895]], [[80.19239930078626, 9.618144701532058]], [[80.00611410999471, 9.61818387358594]], [[79.86198534511574, 9.618379733855342]], [[80.00705720677128, 9.61959406752564]], [[79.84300552248732, 9.620024960118325]], [[80.19164482336501, 9.618810626448028]], [[79.98237164864463, 9.621670186381307]], [[79.77154236424289, 9.62178770254295], [79.76654160550824, 9.618689212890299], [79.77154236424289, 9.62178770254295]], [[79.98159359380395, 9.621983562812352]], [[79.98277246477467, 9.622453627458917]], [[80.18695291690159, 9.622884520051604]], [[80.18933423626243, 9.623080380321007]], [[80.19202206207564, 9.62402050961414]], [[79.83909167086456, 9.6240988537219]], [[79.86297559673115, 9.626018284362047]], [[80.17830000397657, 9.62617497257757]], [[80.20232539435965, 9.627545994463388]], [[80.1816479975334, 9.627937715002194]], [[80.17514062977507, 9.627976887056073]], [[80.18122360398394, 9.628642811972043]], [[80.17839431365424, 9.629347908941892]], [[79.98451719381131, 9.632246640929052]], [[80.17391460396554, 9.631228167528159]], [[79.9997717841723, 9.634831996485168]], [[79.8555958644545, 9.634871168539048]], [[79.85788287413767, 9.639532642950833]], [[80.202914829845, 9.640433600190086]], [[80.16290394909912, 9.63933678268143]], [[80.00472304224928, 9.641687105914261]], [[79.85854304188128, 9.642000482345306]], [[80.19881235886693, 9.639532642950833]], [[79.98746437123809, 9.638905890088743]], [[79.98977495834067, 9.644194117362616]], [[80.08325942631797, 9.644076601200975]], [[80.19555867498777, 9.642588063153514]], [[80.16290394909912, 9.644860042278586]], [[80.00007829062469, 9.645055902547988]], [[80.16181938780606, 9.646074375948881]], [[80.16490802974931, 9.646505268541569]], [[80.16898692330797, 9.64666195675709]], [[80.08229275212199, 9.647132021403657]], [[80.16094702328773, 9.647876290427387]], [[80.16549746523468, 9.648503043289477]], [[80.00377994547271, 9.647602086050224]], [[80.16368200393978, 9.649364828474848]], [[80.16153645877309, 9.652146044300366]], [[80.07705856501202, 9.650931710630068]], [[80.07936915211462, 9.652851141270215]], [[79.99215627770151, 9.652694453054693]], [[80.16549746523468, 9.655828217365137]], [[79.93427371303967, 9.666404671912883]], [[79.93460379691146, 9.668794167199595]], [[79.9341558259426, 9.668676651037952]], [[79.93377858723197, 9.670126017031533]], [[79.9389656195031, 9.673651501880782]], [[79.93887130982543, 9.674199910635108]], [[79.93955505498845, 9.67655023386794]], [[79.90581576780673, 9.677333674945551]], [[79.93606559691514, 9.668833339253474]], [[79.93795179046828, 9.677647051376596]], [[79.91718008396438, 9.680232406932712]], [[79.78340180620823, 9.686813311984642], [79.7648211124309, 9.662132114756764], [79.78340180620823, 9.686813311984642]], [[79.79351651913693, 9.678273804238685]], [[79.86493252254252, 9.707535328487447]], [[79.84798035798372, 9.711961770575947]], [[79.8133922837031, 9.689320323432996]], [[79.90673528716388, 9.751564717049172]], [[80.4211710013622, 7.3562327943081405], [80.48045688546874, 7.2856149895643885], [80.51675193354218, 7.216668552105259], [80.53265880164605, 7.168654137006121], [80.48425663424665, 7.124886090864214], [80.44799400983537, 7.0921739790994325], [80.46013763368148, 7.028911112082363], [80.44462651715378, 6.963662203807618], [80.45811793144972, 6.901177984345745], [80.51112172233069, 6.846701625085367], [80.49753612123233, 6.781058283773963], [80.58658819415963, 6.76371182238287], [80.67660183729379, 6.759408867743794], [80.76490072095122, 6.771882136936931], [80.80864231201508, 6.791685153781824]], [[80.19603022337606, 7.258224315499033], [80.27369396262822, 7.3149529458060325], [80.34838656244813, 7.341323912766944], [80.38407304277142, 7.394598178298212], [80.4211710013622, 7.3562327943081405]], [[80.16118279748187, 7.198526105385094]], [[81.70703630137355, 6.510704011296723], [81.64348577391361, 6.442592774800173], [81.5774231262481, 6.387751104164306], [81.50276363012097, 6.3493930227294175], [81.44161504081885, 6.2954478985806555], [81.37554219953695, 6.241966336266611], [81.31985276518091, 6.198478134855741], [81.2299358057131, 6.172308226676436], [81.14825948616203, 6.138842877591244], [81.09691805502183, 6.1143089050687625], [81.00530961512402, 6.102044555259028], [80.92207357428464, 6.0724514798450056], [80.8423064311367, 6.0447916024416015], [80.781185246064, 6.009486824390102], [80.73911250216261, 5.974479370935573], [80.69418754980887, 5.9630041223358194], [80.62716236835863, 5.94696240990717], [80.58470511367446, 5.927185819733474], [80.5031061953574, 5.938394220752447], [80.4530798619911, 5.952128232356464], [80.39378424287607, 5.9625805717320395], [80.31373542932062, 5.99137491776022], [80.23631944298816, 6.015365763771242], [80.21655102450642, 6.024721478082022], [80.15517969213673, 6.075621771351788], [80.09916738330536, 6.136079060979631], [80.06209415573981, 6.196803268954667], [80.034824682021, 6.265772331148966], [80.02131155180993, 6.346237160821398], [79.99415981093155, 6.426249972626453], [79.9854838680073, 6.443602282999361]], [[80.38092434642218, 6.426131546968641], [80.46132636062755, 6.386254128130252], [80.53365497953493, 6.38443752548384], [80.61058571195912, 6.396715814542553], [80.63156837798468, 6.352321635142875], [80.67060444767316, 6.31022110465121], [80.75619610296042, 6.28362444660987], [80.84206058272119, 6.269509390289219], [80.90013940217737, 6.24550920652548], [80.94138220980125, 6.260895736596006], [80.9321172574872, 6.286208970507358]], [[81.60850626564162, 6.580116890773037], [81.67174669747368, 6.524404605595852], [81.70703630137355, 6.510704011296723]], [[80.61254891474722, 5.92821557009312]], [[80.42588648524504, 5.967622656296941]], [[80.09856117151777, 6.133242100103857]], [[81.60850626564162, 6.580116890773037], [81.5370718956094, 6.537875959336414], [81.47982208365309, 6.473826070920186], [81.4611857321714, 6.413792349996271], [81.39023317488396, 6.411648949080798], [81.30832164276222, 6.375314357648739], [81.23111623125162, 6.34319063711658], [81.17308218010969, 6.400891382473271], [81.1067827265831, 6.418368957109212], [81.04214440395435, 6.399777133571412], [81.01096971799409, 6.342556978461386], [80.93994204042333, 6.305198033958148], [80.9321172574872, 6.286208970507358]], [[80.9321172574872, 6.286208970507358], [80.88168714195689, 6.354054967828451], [80.84131755016685, 6.418768898345588], [80.8369117792888, 6.509359471954845], [80.87027986530705, 6.586054563666566], [80.90564434718218, 6.652858772326964], [80.89401588299481, 6.675546469399974], [80.82640071246769, 6.682300553034703], [80.85740754017014, 6.739937040548918], [80.80864231201508, 6.791685153781824]], [[80.80864231201508, 6.791685153781824], [80.83359573694993, 6.83475621325524], [80.80367674828602, 6.8957396270717535], [80.8310793639586, 6.929746070550891], [80.89605275874794, 6.977650462784688], [80.94055724565322, 7.049288396330723], [80.96442521351896, 7.1185229101259155], [80.94995393405588, 7.1814659155841225], [81.00886069215001, 7.217977492486328], [80.99200656928701, 7.311291373100694], [80.9770283391891, 7.406222818398876], [80.97239810139168, 7.500016850932564], [80.97586375277236, 7.598248761354939], [80.97950787050975, 7.621623459348787]], [[80.97950787050975, 7.621623459348787], [81.01422952797131, 7.552341522150476], [81.06462552092457, 7.511303914337505], [81.14594336075511, 7.561803611811085], [81.20627660043981, 7.528728077736841], [81.18477578104991, 7.447203499037068], [81.2038179555209, 7.366786049708579], [81.25515348157897, 7.317876332978099], [81.29079717288803, 7.245857140042758], [81.31751005843756, 7.320421490215025], [81.37035925735208, 7.357943219703028], [81.40565961099009, 7.415617845358034], [81.47242940055226, 7.457348829215971], [81.47593543431601, 7.38695741359037], [81.49585016485574, 7.3049786061697315], [81.53319146673347, 7.239930966336822], [81.51314375425748, 7.182528022771271], [81.52199800960487, 7.097676240481247], [81.60754765095712, 7.069793645692152], [81.62220147722417, 6.995582560114191], [81.62771660799788, 6.90894423349249], [81.62256709860873, 6.809142928815591], [81.61793019761707, 6.709305802487384], [81.61071024404922, 6.610080137802522], [81.60850626564162, 6.580116890773037]], [[80.19603022337606, 7.258224315499033], [80.16502828156142, 7.19238784068027], [80.15703317166498, 7.143489369682937]], [[80.15700959424557, 7.143489369682937], [80.15703317166498, 7.143489369682937]], [[80.15703317166498, 7.143489369682937], [80.20309536670891, 7.119341850997011], [80.16884906175473, 7.0493861241738704], [80.19912659042842, 6.976308311197641], [80.21257884744143, 6.921221515940089], [80.19138337089791, 6.853512487802218], [80.18667395370949, 6.791032117485229], [80.20404654597688, 6.722193930197749]], [[80.20404654597688, 6.722193930197749], [80.20402296855747, 6.722193930197749]], [[80.20402296855747, 6.722193930197749], [80.25143129506574, 6.652598991647302], [80.30558917282525, 6.591324395706617], [80.32083158985257, 6.521192011121863], [80.37695268757281, 6.43886791261278], [80.38092434642218, 6.426131546968641]], [[80.38092434642218, 6.426131546968641], [80.29814967934065, 6.3969086217743225], [80.28718834757186, 6.333179354192026], [80.21268103036175, 6.3729161425300385], [80.13864748925278, 6.367786880603766], [80.06368218578103, 6.406155610880978], [79.99249873826275, 6.4390080562757745], [79.9854838680073, 6.443602282999361]], [[79.9854838680073, 6.443602282999361], [79.98013179380027, 6.514758260914256], [79.94909206010959, 6.6043059382435265], [79.91295972588924, 6.689776150841278], [79.88037958424422, 6.770771883489994], [79.86000484188496, 6.85933545409446], [79.82247862638165, 6.926083003945158], [79.84064179355227, 6.949632399251966], [79.85135818560263, 6.945478637326261], [79.86904531514783, 6.985524363005549], [79.85088038057167, 7.071737949088685], [79.82643358242119, 7.161185216746307], [79.8303382809724, 7.206787993262813], [79.84100144183711, 7.272874663650355]], [[79.84100144183711, 7.272874663650355], [79.90673249602679, 7.27841647227875], [79.94289298534999, 7.275407232275129], [79.98893777713437, 7.307848216381784], [80.05157036581556, 7.292296754585013], [80.12335683131688, 7.3300685227750195], [80.18162465463426, 7.268487198797103], [80.19603022337606, 7.258224315499033]], [[80.16061693941593, 7.202560826934789]], [[79.97930658412078, 6.441565336197573]], [[79.97876430347425, 6.447088595794729]], [[79.9771846163735, 6.452220134853079]], [[79.9687203228038, 6.464363471556046]], [[79.97173823248882, 6.468829085698427]], [[79.97051220667929, 6.472080366170513]]], "bbox": [79.52131521200005, 5.918696761000149, 81.8790335760001, 9.83586297700009]}