{"type": "Topology", "objects": {"data": {"geometries": [{"properties": {"iso2": "LK", "iso3": "LKA", "adm0_name": "Sri Lanka", "adm0_name1": "\u0dc1\u0dca\u200d\u0dbb\u0dd3 \u0dbd\u0d82\u0d9a\u0dcf", "adm0_name2": "\u0b87\u0bb2\u0b99\u0bcd\u0b95\u0bc8", "adm0_name3": null, "adm0_pcode": "LK", "valid_on": "2022-08-16", "valid_to": null, "version": "v03", "area_sqkm": 66040.81071154, "lang": "en", "lang1": "si", "lang2": "ta", "lang3": null, "center_lat": 7.87727748, "center_lon": 80.6382425}, "type": "Polygon", "arcs": [[-71, 0], [1], [2]], "id": "feature_0"}], "type": "GeometryCollection"}}, "arcs": [[[79.91463372266765, 8.92460348757713], [80.10032624752007, 9.31824453045234], [80.17211657523416, 9.54305080618691], [80.39274395962877, 9.484025674902053], [80.1539516001305, 9.61466884085814], [79.90916108891066, 9.619219341102117], [79.92315220472913, 9.680285322079072], [79.89486317414917, 9.741184122770829], [80.42142228249001, 9.616272757411865], [80.93097133043585, 9.04361811416506], [81.2339712761353, 8.561317458418882], [81.28778946489899, 8.483064436078429], [81.54534084147488, 7.94719334520796], [81.5775803946445, 7.851177202883544], [81.64482520085139, 7.707273509841368], [81.76943937660897, 7.478971568471112], [81.78685226314845, 7.599302676044213], [81.83392792937758, 6.857939166441423], [81.4757130435796, 6.308967933811951], [80.86691030942384, 6.053125910855476], [80.42013359490798, 5.9571101248171265], [80.02858730974914, 6.314292077538643], [79.82676822268516, 6.961880086912435], [79.81200413480322, 7.426536932152604], [79.70040669788614, 8.17722937042553], [79.74657293416934, 8.214208105795505], [79.8172115155277, 8.208292022418481], [79.93715538871342, 8.774560037750026], [79.9145629904094, 8.92460348757713]], [[81.37883862312796, 8.182410582702571]], [[81.81549243067884, 7.468891621268568]], [[80.61254891474722, 5.92821557009312]], [[80.42588648524504, 5.967622656296941]], [[80.09856117151777, 6.133242100103857]], [[79.97930658412078, 6.441565336197573]], [[79.97876430347425, 6.447088595794729]], [[79.9771846163735, 6.452220134853079]], [[79.9687203228038, 6.464363471556046]], [[79.97173823248882, 6.468829085698427]], [[79.97051220667929, 6.472080366170513]], [[81.77126119185782, 7.5363850701047355]], [[81.73202836595259, 7.634080172482798]], [[81.72809093691042, 7.636469667769511]], [[81.69583702715181, 7.647241982586658]], [[81.70491433362626, 7.6493181014423275]], [[81.66466767868624, 7.703297191689709]], [[81.69802972715732, 7.703845600444037]], [[81.6973224045749, 7.714774603476707]], [[81.51822832670467, 7.893046620687036]], [[81.51653075250685, 7.897394718667776]], [[81.51023558152326, 7.901899504864038]], [[81.51690799121748, 7.903153010588215]], [[81.51858198799589, 7.906090914629255]], [[81.51344211056359, 7.911810034495814]], [[81.51542261379439, 7.914552078267452]], [[81.52534870736777, 7.930925996789517]], [[81.52457065252709, 7.932140330459813]], [[81.4637880652773, 8.111979229825364]], [[81.44181391038327, 8.109707250700293]], [[79.80561173529641, 8.175085408626911]], [[79.74867226741112, 8.172500053070795]], [[79.74897877386351, 8.17868923758392]], [[79.75673574485079, 8.177553248021386]], [[79.77913429329426, 8.189304864185546]], [[79.77076430940222, 8.214100774291927]], [[79.78333107395, 8.219036453080875]], [[79.7795351094243, 8.237525662512489]], [[79.78132699329979, 8.240776942984574]], [[79.77599849651217, 8.244419943995464]], [[79.78045462878146, 8.271409489119154]], [[79.78693841912036, 8.274543253429599]], [[79.76145122873362, 8.278538802925413]], [[79.77408872553963, 8.272702166897213]], [[79.79278561913509, 8.282338492151824]], [[79.79653442882194, 8.305410831887462]], [[79.80268813528905, 8.338981282063083]], [[79.78802298041342, 8.547376608707546]], [[79.92008010655232, 8.809359305060585]], [[79.9185475742904, 8.809986057922675]], [[79.92140044203951, 8.811513768024016]], [[79.91607194525191, 8.810142746138197]], [[79.91630771944605, 8.812571413478791]], [[79.91911343235634, 8.817742124591021]], [[79.91654349364019, 8.820797544793702]], [[79.9201979936494, 8.820131619877735]], [[79.91791098396621, 8.820836716847584]], [[79.91817033557977, 8.822051050517882]], [[79.91713292912554, 8.822834491595492]], [[79.91696788718964, 8.825028126612802]], [[79.9188776581622, 8.826712524929665]], [[79.91847684203215, 8.828318579138767]], [[79.92026872590763, 8.831687375772493]], [[79.91883050332336, 8.833254257927715]], [[79.9281907388308, 8.900081781847913]], [[79.9258565743088, 8.90348975053552]], [[79.92896879367147, 8.907602816192977]], [[79.9167321129955, 8.921313035051163]], [[79.91409144202112, 8.923585014176236]], [[79.91463372266765, 8.92460348757713], [79.9145629904094, 8.92460348757713]], [[79.9145629904094, 8.92460348757713], [79.91463372266765, 8.92460348757713]], [[79.90239704199168, 8.941760847176806]], [[79.94608600016618, 8.946187289265307]], [[79.94771284210576, 8.946970730342917]], [[79.91748659041676, 8.947597483205005]], [[79.92151832913659, 8.948185064013213]], [[79.9167321129955, 8.948341752228735]], [[79.92196630010545, 8.948106719905454]], [[79.9212118226842, 8.947871687582168]], [[79.94917464210944, 8.94865512865978]], [[79.9218719904278, 8.948968505090825]], [[79.95240474856918, 8.950339526976643]], [[79.9193963613893, 8.95073124751545]], [[79.95301776147394, 8.95159303270082]], [[79.923192325915, 8.953120742802161]], [[79.95417305502525, 8.953159914856041]], [[79.9203630355853, 8.953473291287086]], [[79.90435396780305, 8.937373577142186]], [[79.89117419035051, 8.957155464351857]], [[79.91765163235266, 8.95660705559753]], [[79.91651991622078, 8.95817393775275]], [[79.91701504202848, 8.95880069061484]], [[79.91996221945524, 8.9588790347226]], [[79.91760447751383, 8.961229357955432]], [[79.90341087102648, 8.961581906440358]], [[79.91626056460723, 8.972785113850192]], [[79.69508079308267, 9.079450616566897]], [[79.69595315760098, 9.08622738188823]], [[79.6956230737292, 9.08763757582793]], [[79.69567022856802, 9.087911780205093]], [[79.69677836728049, 9.09057547986897]], [[79.69757999954057, 9.094061792664338]], [[79.69923041889956, 9.094649373472546]], [[79.69809870276768, 9.094610201418666]], [[79.69734422534643, 9.097704793675227]], [[79.69788650599295, 9.098018170106272]], [[79.69880602535011, 9.098174858321794]], [[79.73028188026805, 9.108359592330734], [79.69362937549774, 9.07927356350998], [79.73028188026805, 9.108359592330734]], [[80.10792140702522, 9.197045122316272]], [[80.00418076160275, 9.277857069471823]], [[80.00436938095807, 9.277935413579584]], [[80.00354417127858, 9.278679682603315]], [[80.00401571966685, 9.278836370818837]], [[79.99871080029867, 9.2805207691357]], [[80.00441653579689, 9.278875542872717]], [[79.99816851965214, 9.282440199775847]], [[79.99840429384628, 9.28204847923704]], [[79.99826282932979, 9.283419501122859]], [[80.002601074502, 9.28643574927166]], [[79.98803022930403, 9.306844389343421]], [[80.0884700360085, 9.313738670826396]], [[80.08502773277402, 9.317734220322212]], [[80.08429683277218, 9.318870209884746]], [[80.07415854242409, 9.322356522680115]], [[80.05652263270227, 9.34597727117008]], [[79.52829412814665, 9.383308238518232]], [[80.12543942964996, 9.428473616642492]], [[80.15644373617963, 9.448803912606492]], [[80.15776407166682, 9.44872556849873]], [[80.15693886198731, 9.453582903179917]], [[80.15698601682615, 9.45440551631141]], [[80.33061013339228, 9.45518895738902]], [[80.33598578501872, 9.458596926076627]], [[80.33584432050223, 9.458831958399909]], [[80.28956184619217, 9.459106162777074]], [[80.28189918488255, 9.459223678938715]], [[80.29312203652371, 9.460359668501251]], [[80.28029592036239, 9.460516356716774]], [[80.29081144942111, 9.459693743585282]], [[80.29517327201275, 9.461534830117667]], [[80.30288308816118, 9.461887378602592]], [[80.29998306557324, 9.4624749594108]], [[80.28807646876908, 9.459850431800804]], [[80.29762532363182, 9.462318271195278]], [[80.28894883328739, 9.459967947962445]], [[80.33516057533922, 9.462749163787963]], [[80.33565570114692, 9.462670819680202]], [[80.33461829469269, 9.463023368165128]], [[80.3349719559839, 9.463101712272888]], [[80.29899281395784, 9.462670819680202]], [[80.33584432050223, 9.463062540219008]], [[80.33643375598758, 9.462905852003486]], [[80.3354435043722, 9.463297572542292]], [[80.28765207521961, 9.462788335841845]], [[80.30481643655315, 9.463180056380649]], [[80.33575001082457, 9.463571776919455]], [[80.28755776554196, 9.463767637188857]], [[80.30019526234797, 9.463650121027216]], [[80.29583343975634, 9.462553303518561]], [[80.28666182360422, 9.464041841566022]], [[80.30946118817775, 9.46470776648199]], [[80.3002424171868, 9.46466859442811]], [[80.32884182693621, 9.46466859442811]], [[80.32752149144902, 9.46533451934408]], [[80.3494249140848, 9.464981970859155]], [[80.29220251716656, 9.464981970859155]], [[80.32558814305706, 9.465569551667363]], [[80.3000773752509, 9.465099487020796]], [[80.27909347197226, 9.464081013619902]], [[80.27850403648691, 9.46321922843453]], [[80.3183498752969, 9.464864454697512]], [[80.28531791069761, 9.465569551667363]], [[80.30561806881323, 9.465060314966916]], [[80.27638206873964, 9.46541286345184]], [[80.30844735914293, 9.465843756044526]], [[80.35187696570388, 9.466744713283779]], [[80.26916737839889, 9.466548853014377]], [[80.35081598183024, 9.466509680960495]], [[80.35053305279727, 9.466588025068257]], [[80.29856842040839, 9.466979745607063]], [[80.35013223666724, 9.466783885337659]], [[80.35067451731376, 9.467097261768703]], [[80.27621702680374, 9.465961272206169]], [[80.35185338828447, 9.467214777930344]], [[80.29670580427467, 9.467136433822585]], [[80.35154688183208, 9.467175605876465]], [[80.29029274619401, 9.467332294091987]], [[80.28868948167384, 9.467919874900195]], [[80.28675613328187, 9.468037391061836]], [[80.3105457494708, 9.467449810253628]], [[80.29713019782412, 9.46752815436139]], [[80.31309211076753, 9.468076563115716]], [[80.29630498814463, 9.46756732641527]], [[80.27284545582751, 9.468115735169597]], [[80.27508531067186, 9.468154907223479]], [[80.2952675816904, 9.46827242338512]], [[80.30017168492856, 9.469134208570491]], [[80.33850856889603, 9.468664143923924]], [[80.35984613346588, 9.469369240893775]], [[80.27310480744106, 9.467802358738552]], [[80.36109573669484, 9.469604273217058]], [[80.31804336884451, 9.470035165809744]], [[80.27558043647954, 9.469643445270938]], [[80.26487628806551, 9.467410638199748]], [[80.27133650098499, 9.469369240893775]], [[80.25360628158552, 9.47046605840243]], [[80.25990145256911, 9.471053639210638]], [[80.2738357074429, 9.47054440251019]], [[80.25801525901598, 9.471367015641682]], [[80.25874615901782, 9.471053639210638]], [[80.25942990418082, 9.471758736180487]], [[80.3676974141308, 9.472424661096456]], [[80.25700142998116, 9.471523703857205]], [[80.3686640883268, 9.473325618335709]], [[80.27697150422499, 9.473599822712872]], [[80.31101729785908, 9.47340396244347]], [[80.3680274980026, 9.473129758066307]], [[80.29286268491015, 9.472307144934815]], [[80.36965433994219, 9.474226575574962]], [[80.28449270101811, 9.47634186648451]], [[80.26973323646483, 9.47559759746078]], [[80.3741812044697, 9.477321167831523]], [[80.37639748189464, 9.476890275238837]], [[80.28178129778549, 9.477869576585851]], [[80.27840972680926, 9.477438683993165]], [[80.3774820431877, 9.47779123247809]], [[80.37750562060711, 9.478731361771224]], [[80.37986336254853, 9.479749835172118]], [[80.37856660448075, 9.479906523387639]], [[80.3755015399569, 9.48135588938122]], [[80.37774139480125, 9.481316717327338]], [[80.38375363675188, 9.48210015840495]], [[80.38535690127203, 9.481904298135547]], [[80.30410911397072, 9.480924996788534]], [[80.37851944964193, 9.482648567159277]], [[80.38705447546987, 9.483353664129126]], [[80.38825692385998, 9.48358869645241]], [[80.37988693996795, 9.483823728775693]], [[80.38167882384343, 9.484176277260618]], [[80.26574865258382, 9.483471180290769]], [[80.30382618493775, 9.48358869645241]], [[80.30781076881875, 9.476929447292719]], [[80.26671532677982, 9.484019589045095]], [[80.2670454106516, 9.485625643254199]], [[80.26306082677061, 9.486683288708972]], [[80.26100959128158, 9.487388385678823]], [[80.25723720417531, 9.490404633827623]], [[80.25615264288226, 9.49087469847419]], [[80.2545729557815, 9.49091387052807]], [[80.25749655578886, 9.491462279282398]], [[80.2578973719189, 9.490835526420309]], [[80.27725443325795, 9.49295081732986]], [[80.26077381708744, 9.49451769948508]], [[80.26148113966985, 9.494791903862243]], [[80.25558678481632, 9.494791903862243]], [[80.26185837838048, 9.495653689047616]], [[80.26355595257832, 9.496045409586422]], [[80.28402115262983, 9.494282667161798]], [[80.26091528160391, 9.496868022717912]], [[80.25334692997197, 9.496202097801943]], [[80.2627071654794, 9.498043184334328]], [[80.2643575848384, 9.498004012280449]], [[80.26124536547572, 9.49816070049597]], [[80.26230634934936, 9.498552421034775]], [[80.25697785256175, 9.498278216657612]], [[80.25761444288594, 9.498591593088657]], [[80.22604427829033, 9.535021603197556]], [[80.20671079437068, 9.536275108921734]], [[80.22486540731961, 9.536510141245017]], [[80.20279694274792, 9.537802819023074]], [[80.22085724601921, 9.539056324747252]], [[80.21840519440012, 9.53823371161576]], [[80.20100505887245, 9.5425818095965]], [[80.35847864313986, 9.543600282997394]], [[80.19470988788886, 9.544932132829333]], [[80.35253713344748, 9.549476091079475]], [[80.34970784311777, 9.54990698367216]], [[80.3479159592423, 9.551434693773501]], [[79.66061060589911, 9.556017824077525]], [[79.8006133223806, 9.57885513148988]], [[80.30528798494143, 9.58477011162584]], [[80.30394407203482, 9.585044316003003]], [[80.29974729137909, 9.585749412972854]], [[80.30160990751281, 9.58551438064957]], [[80.30102047202746, 9.586728714319868]], [[80.19935463951346, 9.58990165068419]], [[80.19694974273321, 9.594406436880453]], [[80.1894521233595, 9.59503318974254]], [[79.80198081270662, 9.59428892071881]], [[80.19746844596033, 9.596991792436569]], [[80.19555867498777, 9.598872051022834]], [[80.19633672982845, 9.598911223076716]], [[80.09070989085285, 9.599185427453879]], [[80.19291800401338, 9.599577147992683]], [[80.19294158143279, 9.600634793447458]], [[80.19864731693103, 9.60161409479447]], [[80.18150653301691, 9.604081934188946]], [[80.18079921043449, 9.604630342943274]], [[80.18072847817625, 9.604826203212676]], [[80.17789918784653, 9.604787031158795]], [[80.18061059107917, 9.604982891428198]], [[80.17910163623667, 9.604747859104915]], [[80.17863008784838, 9.605687988398047]], [[80.18011546527147, 9.605335439913123]], [[80.18117644914511, 9.605492128128645]], [[80.18030408462678, 9.60584467661357]], [[80.17726259752236, 9.60596219277521]], [[80.17794634268537, 9.606197225098494]], [[80.17877155236486, 9.60662811769118]], [[80.17771056849122, 9.60662811769118]], [[79.96999350345217, 9.607999139577]], [[79.96820161957669, 9.608625892439088]], [[80.06783979402108, 9.609879398163265]], [[80.07694067791496, 9.612151377288336]], [[79.98246595832228, 9.613365710958632]], [[80.19079603626611, 9.613796603551318]], [[79.98225376154755, 9.613404883012514]], [[80.1813179136616, 9.615637690083705]], [[79.98206514219224, 9.616186098838032]], [[79.86016988382086, 9.616538647322956]], [[79.98211229703107, 9.616812851700121]], [[79.98246595832228, 9.617047884023403]], [[79.858755238656, 9.616734507592358]], [[79.85469992251676, 9.616577819376838]], [[80.18110571688688, 9.617165400185044]], [[80.2017359588743, 9.617282916346687]], [[80.19079603626611, 9.61461921668281]], [[80.19305946852987, 9.617870497154895]], [[80.19239930078626, 9.618144701532058]], [[80.00611410999471, 9.61818387358594]], [[79.86198534511574, 9.618379733855342]], [[80.00705720677128, 9.61959406752564]], [[79.84300552248732, 9.620024960118325]], [[80.19164482336501, 9.618810626448028]], [[79.98237164864463, 9.621670186381307]], [[79.77154236424289, 9.62178770254295]], [[79.98159359380395, 9.621983562812352]], [[79.98277246477467, 9.622453627458917]], [[80.18695291690159, 9.622884520051604]], [[80.18933423626243, 9.623080380321007]], [[80.19202206207564, 9.62402050961414]], [[79.83909167086456, 9.6240988537219]], [[79.86297559673115, 9.626018284362047]], [[80.17830000397657, 9.62617497257757]], [[80.20232539435965, 9.627545994463388]], [[80.1816479975334, 9.627937715002194]], [[80.17514062977507, 9.627976887056073]], [[80.18122360398394, 9.628642811972043]], [[80.17839431365424, 9.629347908941892]], [[79.98451719381131, 9.632246640929052]], [[80.17391460396554, 9.631228167528159]], [[79.9997717841723, 9.634831996485168]], [[79.8555958644545, 9.634871168539048]], [[79.85788287413767, 9.639532642950833]], [[80.202914829845, 9.640433600190086]], [[80.16290394909912, 9.63933678268143]], [[80.00472304224928, 9.641687105914261]], [[79.85854304188128, 9.642000482345306]], [[80.19881235886693, 9.639532642950833]], [[79.98746437123809, 9.638905890088743]], [[79.98977495834067, 9.644194117362616]], [[80.08325942631797, 9.644076601200975]], [[80.19555867498777, 9.642588063153514]], [[80.16290394909912, 9.644860042278586]], [[80.00007829062469, 9.645055902547988]], [[80.16181938780606, 9.646074375948881]], [[80.16490802974931, 9.646505268541569]], [[80.16898692330797, 9.64666195675709]], [[80.08229275212199, 9.647132021403657]], [[80.16094702328773, 9.647876290427387]], [[80.16549746523468, 9.648503043289477]], [[80.00377994547271, 9.647602086050224]], [[80.16368200393978, 9.649364828474848]], [[80.16153645877309, 9.652146044300366]], [[80.07705856501202, 9.650931710630068]], [[80.07936915211462, 9.652851141270215]], [[79.99215627770151, 9.652694453054693]], [[80.16549746523468, 9.655828217365137]], [[79.93427371303967, 9.666404671912883]], [[79.93460379691146, 9.668794167199595]], [[79.9341558259426, 9.668676651037952]], [[79.93377858723197, 9.670126017031533]], [[79.9389656195031, 9.673651501880782]], [[79.93887130982543, 9.674199910635108]], [[79.93955505498845, 9.67655023386794]], [[79.90581576780673, 9.677333674945551]], [[79.93606559691514, 9.668833339253474]], [[79.93795179046828, 9.677647051376596]], [[79.91718008396438, 9.680232406932712]], [[79.78340180620823, 9.686813311984642]], [[79.79351651913693, 9.678273804238685]], [[79.86493252254252, 9.707535328487447]], [[79.84798035798372, 9.711961770575947]], [[79.8133922837031, 9.689320323432996]], [[79.90673528716388, 9.751564717049172]]], "bbox": [79.52131521200005, 5.918696761000149, 81.8790335760001, 9.83586297700009]}